Do Not Publish	Business Owner Name	Business Name	Street Number	Street Name	Suite Number	P.O. Box Number	PMB Number	City	State	 Zip 	 Home Based 	 Primary NAICS #	 NAICS Description 	 New Business? 	Business Start	Business Expiration	Ownership Type	# Employees	Council District	Business Community	BID	BID Description
N	1CEHOUSE LLC	1CEHOUSE LLC	6210	EL CAJON BLVD 				SAN DIEGO	CA	92115-3916	N	711	MUSIC ENTERTAINMENT	N	3/26/2019	3/31/2021	LLC	0	9	COLLEGE AREA	21	COLLEGE AREA
Y	CCTC INVESTMENTS	1ST CHOICE MEDICAL GROUP	6244	EL CAJON BLVD 	29			SAN DIEGO	CA	92115-3918	N	621999	HEALTH PRACTITIONER	N	7/1/2019	6/30/2021	SCORP	1	9	COLLEGE AREA	21	COLLEGE AREA
N	21 TEA GROUP LLC	21 TEA GROUP LLC	6353	EL CAJON BLVD 	134			SAN DIEGO	CA	92115-5571	N	722213	TEA AND COFEE SHOP	N	12/1/2017	11/30/2020	LLC	2	9	MID-CITY:EASTERN AREA	21	COLLEGE AREA
N	BANG BALCONY LLC	225IVE / BANG BALCONY LLC	6345	EL CAJON BLVD 	2212			SAN DIEGO	CA	92115-5571	Y	5121	VIDEO PRODUCTION, MARKETING,  COMMERCIAL DRONE SERVICES	N	2/22/2018	2/28/2021	LLC	0	9	MID-CITY:EASTERN AREA	21	COLLEGE AREA
N	H&K INVESTMENT GROUP LLC	3 KINGS AUTO	7057	EL CAJON BLVD 				SAN DIEGO	CA	92115-1825	N	4411	CAR DEALERSHIP ( RETAIL)	N	7/24/2018	7/31/2021	LLC	1	9	MID-CITY:EASTERN AREA	21	COLLEGE AREA
N	30NP LLC	30NP LLC	5700	EL CAJON BLVD 				SAN DIEGO	CA	92115-3737	N	53112	COMMERCIAL REAL ESTATE	N	4/30/2018	4/30/2021	LLC	0	9	COLLEGE AREA	21	COLLEGE AREA
N	H&K INVESTMENT GROUP LLC	3KINGS HOOKAH LOUNGE	7059	EL CAJON BLVD 				SAN DIEGO	CA	92115-1825	N	453991	LOUNGE WHERE PEOPLE SMOKE HOOKAH.	N	4/5/2014	4/30/2021	LLC	0	9	MID-CITY:EASTERN AREA	21	COLLEGE AREA
N	5 ELEMENTS MARTIAL ARTS WELLNESS CENTER LLC	5 ELEMENTS MARTIAL ARTS WELLNESS CENTER LLC	7036	EL CAJON BLVD 	2			SAN DIEGO	CA	92115-1824	N	81299	MARTIAL ARTS STUDIO	N	12/1/2016	11/30/2020	LLC	3	9	COLLEGE AREA	21	COLLEGE AREA
N	5 STARS KITCHEN AND BATH	5 STARS KITCHEN AND BATH	6822	EL CAJON BLVD 				SAN DIEGO	CA	92115-1724	N	56179	KITCHEN AND BATH REMODEL	N	10/1/2019	9/30/2021	CORP	2	9	COLLEGE AREA	21	COLLEGE AREA
N	55 THAI KITCHEN LLC	55 THAI KITCHEN	5157	COLLEGE AVE 	A			SAN DIEGO	CA	92115-2442	N	722211	FAST CASUAL RESTAURANT TAKE-OUT RESTAURANT	N	4/1/2018	3/31/2021	LLC	7	9	COLLEGE AREA	21	COLLEGE AREA
Y	RIZK ROY SAWAYA	7 ELEVEN 21794	6991	EL CAJON BLVD 				SAN DIEGO	CA	92115-1739	N	44512	CONVENIENCE STORE SELLING TO TOBACCO SUNDREES SNACKS	N	4/28/2010	4/30/2021	SOLE	8	9	MID-CITY:EASTERN AREA	21	COLLEGE AREA
N	RAASHI INC	7 ELEVEN STORE 13633F	5141	COLLEGE AVE 				SAN DIEGO	CA	92115-2413	N	44512	CONVENIENCE MARKET	N	12/24/2019	12/31/2020	SCORP	5	9	COLLEGE AREA	21	COLLEGE AREA
N	7 ELEVEN INC	7-ELEVEN FOOD STORE #20174T/2021	6571	EL CAJON BLVD 				SAN DIEGO	CA	92115-2706	N	44512	CONVENIENCE STORE SELLING PREPACKAGED FOODS, BEVERAGES, SUNDRIES, AND LOTTO TO PATRONS.	N	9/1/1978	8/31/2021	CORP	10	9	MID-CITY:EASTERN AREA	21	COLLEGE AREA
N	A BRANCH AWAY LLC	A BRANCH AWAY LLC	4730	COLLEGE AVE 				SAN DIEGO	CA	92115-3905	N	7213	PROVIDED CLEAN, SAFE AND SOBER RESIDENCE FOR PEOPLE TRANSITIONING BACK INTO SOCIETY FROM JAILS, PRISON TREATMENT PROGRAM & HOMELESSNESS.	N	8/15/2019	8/31/2021	LLC	0	9	COLLEGE AREA	21	COLLEGE AREA
N	MARSHAL L JACKSON	A VISION OF HOPE	6244	EL CAJON BLVD 	4			SAN DIEGO	CA	92115-3918	N	45322	SERENITY, SHOP, TOKENS, RECOVERY, NA, AA, CA BOOKS, PAMPHLETS & GIFTS ETC	N	2/15/2020	2/28/2021	SOLE	0	9	COLLEGE AREA	21	COLLEGE AREA
Y	MARSHAL JACKSON	A VISION OF HOPE	6244	EL CAJON BLVD 	4			SAN DIEGO	CA	92115-3918	Y	44	RETAIL	N	2/14/2020	2/28/2021	SOLE	0	9	COLLEGE AREA	21	COLLEGE AREA
N	SCRIVENER MICHAEL S	A+ REVIEW	6784	EL CAJON BLVD 	G			SAN DIEGO	CA	92115-1602	N	611691	EXAM PREPARATION & TUTORING	N	1/1/1993	12/31/2020	SOLE	0	9	COLLEGE AREA	21	COLLEGE AREA
N	AMANDA BARCENA	AB3 BOOKKEEPING	4456	COLLEGE AVE 				SAN DIEGO	CA	92115-5534	Y	54121	BOOKKEEPING	N	8/1/2019	7/31/2021	SOLE	0	9	MID-CITY:EASTERN AREA	21	COLLEGE AREA
N	ABBASI AUTO SERVICE INC	ABBASI AUTO	5625	EL CAJON BLVD 				SAN DIEGO	CA	92115-3736	N	4411	AUTO SALES	N	10/1/2020	9/30/2021	CORP	2	9	MID-CITY:EASTERN AREA	21	COLLEGE AREA
N	ABIGAIL JENNIFER MENDEZ	ABBY'S CLEANING SERVICES	6470	EL CAJON BLVD 	232			SAN DIEGO	CA	92115-2665	Y	56172	JANITORIAL 	N	2/27/2019	2/28/2021	SOLE	0	9	COLLEGE AREA                       	21	COLLEGE AREA
Y	ABRAHA G PETROS	ABRAHA G PETROS	5857	EL CAJON BLVD 	3			SAN DIEGO	CA	92115-3783	Y	48531	DRIVING TAXI. 	N	5/23/2011	5/31/2021	SOLE	0	9	MID-CITY:EASTERN AREA	21	COLLEGE AREA
N	ABRAJ RESTAURANT INC	ABRAJ RESTAURANT INC	6475	EL CAJON BLVD 				SAN DIEGO	CA	92115-2646	N	72211	FOOD RESTAURANT	N	7/25/2017	7/31/2021	CORP	1	9	MID-CITY:EASTERN AREA	21	COLLEGE AREA
N	THOMAS J HARMON	ABS AUTO AUCTIONS	5905	EL CAJON BLVD 				SAN DIEGO	CA	92115-3827	N	42111	WHOLESALE AUTO AUCTION	Y	10/1/2020	9/30/2021	SOLE	12	9	MID-CITY:EASTERN AREA	21	COLLEGE AREA
N	SHAVON T DUNN	ACKEE TREE THE REAL JAMAICAN CUISINE	5712	EL CAJON BLVD 				SAN DIEGO	CA	92115-3737	N	722211	RESTAURANT, SELLING COOKED FOOD, AND PREPACKED SODA/WATER	N	11/15/2015	11/30/2020	SOLE	3	9	COLLEGE AREA	21	COLLEGE AREA
N	MENTAL HEALTH SYSTEMS INC	ACTION CENTRAL	6244	EL CAJON BLVD 	15-18			SAN DIEGO	CA	92115-3918	N	81341	INDIVIDUAL AND SMALL GROUP COUNSELING	N	6/15/2005	6/30/2021	NO/PRF	14	9	COLLEGE AREA	21	COLLEGE AREA
N	MENTAL HEALTH SYSTEMS INC	ACTION CENTRAL	6244	EL CAJON BLVD 	16			SAN DIEGO	CA	92115-3918	N	81356	INDIVIDUAL & SMALL GROUP COUNSELING	N	2/1/2017	1/31/2021	NO/PRF	12	9	COLLEGE AREA	21	COLLEGE AREA
N	RETINA INSTITUTE OF CALIFORNIA MEDICAL GROUP	ACUITY EYE GROUP	6945	EL CAJON BLVD 				SAN DIEGO	CA	92115-1754	N	6213	EYE CLINIC	N	2/1/2018	1/31/2021	PARTNR	7	9	MID-CITY:EASTERN AREA	21	COLLEGE AREA
N	ADRIANBERTOS INC	ADALBERTOS MEXICAN FOOD	6685	EL CAJON BLVD 				SAN DIEGO	CA	92115-2802	N	7222	SELLING MEXICAN FOOD	N	1/15/2020	1/31/2021	SCORP	0	9	MID-CITY:EASTERN AREA	21	COLLEGE AREA
Y	ADAM MANLEY & AMERTAH PERMAN	ADAM MANLEY & AMERTAH PERMAN	6353	EL CAJON BLVD 	124			SAN DIEGO	CA	92115-2655	Y	71151	INDEPENDENT ARTISTS, WRITERS & PERFORMERS	N	7/1/2016	6/30/2021	H-W	0		MID-CITY:EASTERN AREA	21	COLLEGE AREA
Y	ADBINUR M ABDI	ADBINUR ABDI	4413	COLLEGE AVE 	4413			SAN DIEGO	CA	92115-5535	Y	48531	TAXI	N	6/17/2015	6/30/2021	SOLE	0	9	MID-CITY:EASTERN AREA	21	COLLEGE AREA
Y	GLEN C SLUDER	ADORA TATTOO STUDIO / ADORA TATTOO	7151	EL CAJON BLVD 	L			SAN DIEGO	CA	92115-1819	N	812196	I WILL BE WORKING BY MYSELF AS A PROFESSIONAL TATTOO ARTIST 	N	4/25/2011	4/30/2021	SOLE	0	9	MID-CITY:EASTERN AREA	21	COLLEGE AREA
N	MILLARD R GAY	ADRIAN'S BOSSY SALON SUITES	6244	EL CAJON BLVD 	9			SAN DIEGO	CA	92115-3918	N	812112	HAIR SALON 	N	1/2/2020	1/31/2021	SOLE	0	9	COLLEGE AREA	21	COLLEGE AREA
Y	MILLARD R GAY	ADRIAN'S BOSSY SALON SUITES	6244	EL CAJON BLVD 	21			SAN DIEGO	CA	92115-3918	N	812113	NAIL SALON	N	1/2/2020	1/31/2021	SOLE	0	9	COLLEGE AREA	21	COLLEGE AREA
N	HUAN ALBERT LE,MD	ADVANCED LUNG & SLEEP CLINIC	5507	EL CAJON BLVD 				SAN DIEGO	CA	92115-3624	N	62111	MEDICAL CLINIC	N	1/1/2005	12/31/2020	SOLE	0	9	MID-CITY:EASTERN AREA	21	COLLEGE AREA
N	CHRISTINE I OLWAR TOMBE	AFRICAN BEAUTY HAIR BRADING & HINNA	5728	EL CAJON BLVD 				SAN DIEGO	CA	92115-3737	N	812112	HAIR BRADING SALON	N	3/30/2009	3/31/2021	SOLE	0	9	COLLEGE AREA	21	COLLEGE AREA
N	ALCAM MEDICAL INC	ALCAM MEDICAL INC	6244	EL CAJON BLVD 	12			SAN DIEGO	CA	92115-3918	N	621999	ORTHOTIC & PROSTHETIC BUSINESS. FITTING PATIENTS FOR BRACES AND PROSTETIC LIMBS	N	6/11/2018	6/30/2021	SCORP	1	9	COLLEGE AREA	21	COLLEGE AREA
Y	SAG GROUP INC	ALFORON	5965	EL CAJON BLVD 				SAN DIEGO	CA	92115-3827	N	72221	LIMITED-SERVICE EATING PLACES	N	10/1/2010	9/30/2021	CORP	4	9	MID-CITY:EASTERN AREA	21	COLLEGE AREA
N	ALIA INSURANCE SERVICES INC	ALIA AUTO INSURANCE	5799	EL CAJON BLVD 				SAN DIEGO	CA	92115-3738	N	52421	INSURANCE AGENCIES & BROKERAGES	N	12/6/2001	12/31/2020	CORP	4	9	MID-CITY:EASTERN AREA	21	COLLEGE AREA
N	COLTON CAMPUS PT LLC	ALL AMERICAN SELF STORAGE	6225	EL CAJON BLVD 				SAN DIEGO	CA	92115-3917	N	49311	SELF STORAGE FACILITY	N	2/17/2005	2/28/2021	LLC	0	9	MID-CITY:EASTERN AREA	21	COLLEGE AREA
N	ALLIANCE FOR AFRICIAN ASSISTANCE	ALLIANCE FOR AFRICAN ASSISTANCE 	5952	EL CAJON BLVD 				SAN DIEGO	CA	92115-3828	N	8134	HEALTH CLINIC	N	11/16/1992	11/30/2020	CORP	4	9	COLLEGE AREA	21	COLLEGE AREA
N	ALLIANCE HEALTH CLINIC INC	ALLIANCE HEALTH CLINIC INC	5952	EL CAJON BLVD 				SAN DIEGO	CA	92115-3828	N	81356	COMMUNITY HEALTH CLINIC SERVICE	N	1/1/2007	12/31/2020	NO/PRF	4	9	COLLEGE AREA	21	COLLEGE AREA
N	MICHEAL R ALLMAN	ALLMAN AUTO SALES	7066	EL CAJON BLVD 	C			SAN DIEGO	CA	92115-1824	N	44112	USED AUTO SALES	N	8/4/2019	8/31/2021	SOLE	0		COLLEGE AREA                       	21	COLLEGE AREA
N	ALLMAN FAMILY AUTO INC	ALLMAN FAMILY AUTO INC	7066	EL CAJON BLVD 				SAN DIEGO	CA	92115-1824	N	811111	GENERAL AUTO REPAIR	N	7/1/2014	6/30/2021	SCORP	4	9	COLLEGE AREA	21	COLLEGE AREA
N	HOME OF PEACE MORTUARY	AM ISRAEL MORTUARY INC	6316	EL CAJON BLVD 				SAN DIEGO	CA	92115-2641	N	5419	OTH PROFESSIONAL/SCIENTIFIC/TECHNICAL SERVICE	N	9/1/1977	8/31/2021	CORP	6	9	COLLEGE AREA	21	COLLEGE AREA
Y	AMERICAN INTERNATIONAL ACADEMY INC	AMERICAN INTERNATIONAL ACADEMY INC	5875	EL CAJON BLVD 	204			SAN DIEGO	CA	92115-3770	N	6117	INTERNATIONAL CULTURE EXCHANGE PROGRAM	N	1/1/2016	12/31/2020	CORP	3	9	MID-CITY:EASTERN AREA	21	COLLEGE AREA
N	ERIC V TRAN & LEE T CHAU	AMY'S NAILS & HAIR	6375	EL CAJON BLVD 	D			SAN DIEGO	CA	92115-2656	N	812113	NAILS SALON	N	2/18/2008	2/28/2021	H-W	2	9	MID-CITY:EASTERN AREA	21	COLLEGE AREA
Y	ANDREW GUILLEN	ANDREW GUILLEN	5549	EL CAJON BLVD 				SAN DIEGO	CA	92115-3624	N	51211	CONTENT CREATION	N	3/8/2020	3/31/2021	SOLE	0	9	MID-CITY:EASTERN AREA	21	COLLEGE AREA
N	ANEL VALDEZ & MARCOS VALDEZ	ANNELL'S CLOSET	4812	70TH ST 	5			SAN DIEGO	CA	92115-3079	Y	454112	SELLING CLOTHES ONLINE AND FLEA MARKET	N	10/18/2019	10/31/2021	H-W	2	9	MID-CITY:EASTERN AREA              	21	COLLEGE AREA
N	AQUA EXPRESS INC	AQUA CLEAN EXPRESS CAR WASH	6675	EL CAJON BLVD 				SAN DIEGO	CA	92115-2802	N	811192	CAR WASH	N	5/15/2014	5/31/2021	CORP	8	9	MID-CITY:EASTERN AREA	21	COLLEGE AREA
Y	DIANA ROMERO	AT YOUR SIDE PLANNING	6353	EL CAJON BLVD 	124-177			SAN DIEGO	CA	92115-2600	N	81299	WEDDING AND EVENT PLANNING	N	8/20/2012	8/31/2021	SOLE	0	9	MID-CITY:EASTERN AREA	21	COLLEGE AREA
N	AUDIO DESIGN RENTALS INC	AUDIO DESIGN RENTALS	6555	EL CAJON BLVD 				SAN DIEGO	CA	92115-2705	N	53229	OTHER CONSUMER GOODS RENTAL	N	1/15/1999	1/31/2021	CORP	0	9	MID-CITY:EASTERN AREA	21	COLLEGE AREA
N	CARMEN GONZALEZ	AUTO GLASS 4 LESS/WESTCOAST AUTO GLASS & TINT	5803	EL CAJON BLVD 				SAN DIEGO	CA	92115-3741	N	811198	REPLACE AUTO GLASS AND WINDOW TINT	N	3/29/2004	3/31/2021	SOLE	2	9	MID-CITY:EASTERN AREA	21	COLLEGE AREA
Y	MEHDI KHORRAMI	AZTEC AUTO SALES	5811	EL CAJON BLVD 				SAN DIEGO	CA	92115-3741	N	44112	USED CAR SALES.	N	11/9/2011	11/30/2020	SOLE	0	9	MID-CITY:EASTERN AREA	21	COLLEGE AREA
N	ALISA M TAGLE	AZTEC SMOG CENTER	6590	EL CAJON BLVD 	B			SAN DIEGO	CA	92115-2707	N	811198	SMOGS	N	2/1/2019	1/31/2021	SOLE	3	9	COLLEGE AREA                       	21	COLLEGE AREA
N	SHAMOUN SOMO INC	AZTEC SMOKE AND VAPE SHOP	5969	EL CAJON BLVD 				SAN DIEGO	CA	92115-3827	N	453991	SMOKE SHOP	N	11/1/2006	10/31/2021	CORP	3	9	MID-CITY:EASTERN AREA	21	COLLEGE AREA
N	REBECA SAMMAN	AZTEC TAN & SPA	6465	EL CAJON BLVD 				SAN DIEGO	CA	92115-2646	N	812199	TANNING BEDS. UVB, SALE LOTIONS	N	2/23/2012	2/28/2021	SOLE	0	9	MID-CITY:EASTERN AREA	21	COLLEGE AREA
N	BROOKS NATHANIEL	B & D ENTERPRISES	5937	EL CAJON BLVD 				SAN DIEGO	CA	92115-3827	N	323	PRINTING SERVICES.	N	6/1/1995	5/31/2021	SOLE	0	9	MID-CITY:EASTERN AREA	21	COLLEGE AREA
N	B & H EQUIPMENT INC	B & H EQUIPMENT INC	6916	EL CAJON BLVD 	L			SAN DIEGO	CA	92115-1738	N	811192	CARWASH-COIN-OPERATED	N	7/1/1974	6/30/2021	CORP	1	9	COLLEGE AREA                       	21	COLLEGE AREA
N	JACK SEUFERER	B R U AUTOMOTIVE	5625	EL CAJON BLVD 				SAN DIEGO	CA	92115-3736	N	811111	GENERAL AUTOMOTIVE REPAIR	N	6/8/1988	6/30/2021	SOLE	3	9	MID-CITY:EASTERN AREA	21	COLLEGE AREA
N	BALBOA NEPHROLOGY MEDICAL GROUP INC	BALBOA NEPHROLOGY MEDICAL GROUP INC	6402	EL CAJON BLVD 	102			SAN DIEGO	CA	92115-2645	N	62139	MEDICAL OFFICE	N	10/1/2014	9/30/2021	SCORP	3	9	COLLEGE AREA	21	COLLEGE AREA
N	MEDICAL MANAGEMENT INTERNATIONAL INC	BANFIELD PET HOSPITAL # 5236	4585	COLLEGE AVE 	4A			SAN DIEGO	CA	92115-4011	N	81291	VETERINARIAN SERVICES (SMALL ANIMAL)	N	4/13/2020	4/30/2021	CORP	10	9	MID-CITY:EASTERN AREA	21	COLLEGE AREA
Y	DEP GAI LLC	BANH MI BABE	5854	MONTEZUMA RD 				SAN DIEGO	CA	92115-2340	N	11	AGRICULTURE, FORESTRY, FISHING & HUNTING	N	2/1/2020	1/31/2021	LLC	0	9	COLLEGE AREA	21	COLLEGE AREA
N	TIFFANY M GARCIA	BEAUTIFUL DAME SKINCARE	6602	EL CAJON BLVD 	A107			SAN DIEGO	CA	92115-2875	N	812112	SKINCARE HEALTH & WELLNESS	N	11/15/2019	11/30/2020	SOLE	1	9	COLLEGE AREA                       	21	COLLEGE AREA
N	LILIA VANESSA GARLOUGH	BEAUTY BY VANESSA	4901	70TH ST 				SAN DIEGO	CA	92115-1802	N	81211	SKINCARE AND WAXING FACILITY	N	3/13/2019	3/31/2021	SOLE	0	9	MID-CITY:EASTERN AREA	21	COLLEGE AREA
N	ALINA PROKOPETS	BECLEAN	5885	EL CAJON BLVD 	111			SAN DIEGO	CA	92115-3755	N	454112	SALES IN INTERNET	N	3/20/2020	3/31/2021	SOLE	0	9	MID-CITY:EASTERN AREA	21	COLLEGE AREA
N	BELLA BEVERAGE CATERING EVENTS INC	BELLA BEVERAGE CATERING EVENTS INC	6955	EL CAJON BLVD 				SAN DIEGO	CA	92115-1739	Y	72232	MOBILE BARS / MOBILE BARTENDING	N	4/8/2014	4/30/2021	SCORP	5	9	MID-CITY:EASTERN AREA	21	COLLEGE AREA
N	BIG 5 CORP	BIG 5 SPORTING GOODS #127	6061	EL CAJON BLVD 				SAN DIEGO	CA	92115-3845	N	45111	SPORTING GOODS STORES	N	10/1/1989	10/31/2021	CORP	21	9	MID-CITY:EASTERN AREA	21	COLLEGE AREA
N	BIOMAT USA INC	BIOMAT USA INC	7150	EL CAJON BLVD 				SAN DIEGO	CA	92115-1827	N	54171	COLLECTION OF BLOOD PLASMA	N	4/1/2008	3/31/2021	CORP	53	9	COLLEGE AREA	21	COLLEGE AREA
Y	XUAN VO	BLADEZ SMOKE SHOP	6563	EL CAJON BLVD 				SAN DIEGO	CA	92115-2705	N	453991	SMOKE SHOP TOBACCO PRODUCTS.	N	11/1/2015	10/31/2021	SOLE	1	9	MID-CITY:EASTERN AREA	21	COLLEGE AREA
N	ABLA KOUMA M ATSOUVI	BLESSED HANDS BEAUTY & SPA LOUNGE	6765	EL CAJON BLVD 				SAN DIEGO	CA	92115-1621	Y	81211	HAIR STYLIST	N	3/9/2018	3/31/2021	SOLE	0	9	MID-CITY:EASTERN AREA	21	COLLEGE AREA
N	CLARA J  CARR	BLESSED HANDS BEAUTY SALON	6765	EL CAJON BLVD 				SAN DIEGO	CA	92115-1621	N	812112	STYLE HARI CUTT HAIR COLOR HAIR TREAT & CONDITION HAIR COMPLETE HAIR STYLING	N	7/1/2009	6/30/2017	SOLE	0	9	MID-CITY:EASTERN AREA	21	COLLEGE AREA
N	CLARA J REYNOLDS	BLESSED HANDS STYLING AND BRAIDING SALON	6769	EL CAJON BLVD 	14			SAN DIEGO	CA	92115-1623	N	44612	COSMETICS, BEAUTY SUPPLIES & PERFUME STORES	N	7/29/2015	7/31/2021	SOLE	0	9	MID-CITY:EASTERN AREA	21	COLLEGE AREA
N	BLICK ART MATERIALS LLC	BLICK ART MATERIALS	5500	CAMPANILE DR 				SAN DIEGO	CA	92115-1701	N	45399	RETAIL ART SUPPLIES	N	1/1/2014	12/31/2020	LLC	2	9	COLLEGE AREA	21	COLLEGE AREA
N	BLUE CHIP HOSPITALITY GROUP INC	BLUE CHIP HOSPITALITY GROUP INC	6161	EL CAJON BLVD 	B-479			SAN DIEGO	CA	92115-3922	N	561599	SPORTS HOSPITALITY TAHT SUPPLIES CLIENTS QWITH TICKETS AND RUNS EVENTS AND SPORTING EVENTS	N	1/22/2009	4/30/2021	CORP	1	9	MID-CITY:EASTERN AREA	21	COLLEGE AREA
N	DAVE MASON	BLUE PLANET LAUNDRY	6145	EL CAJON BLVD 				SAN DIEGO	CA	92115-3923	N	8123	LAUNDROMAT	N	5/7/2011	5/31/2021	SOLE	5	9	MID-CITY:EASTERN AREA	21	COLLEGE AREA
N	SHABA INC	BOB SMOKE SHOP	6165	EL CAJON BLVD 	M			SAN DIEGO	CA	92115-3927	N	453991	TOBACCO SHOP	N	1/1/2015	12/31/2020	SCORP	1	9	MID-CITY:EASTERN AREA	21	COLLEGE AREA
N	MICHAEL J BOND	BOND'S AUTOMOTIVE	7215	EL CAJON BLVD 				SAN DIEGO	CA	92115-1830	N	811111	GENERAL AUTOMOTIVE REPAIR	N	3/1/2002	2/28/2021	SOLE	0	9	MID-CITY:EASTERN AREA	21	COLLEGE AREA
N	RAY CHAVEZ JR	BOULEVARD BARBERS	5733	EL CAJON BLVD 				SAN DIEGO	CA	92115-3738	N	812111	BARBER SHOP/CUT HAIR	N	8/31/2011	8/31/2021	SOLE	0	9	MID-CITY:EASTERN AREA	21	COLLEGE AREA
N	OROZCO/WOODINGTON	BOWMAN'S COLLEGE CENTER GARAGE	4622	COLLEGE AVE 				SAN DIEGO	CA	92115-3903	N	54199	ALL OTH PROF, SCIENTIFIC & TECHNICAL SERVICES	N	2/20/2000	2/28/2021	PARTNR	1	9	COLLEGE AREA	21	COLLEGE AREA
N	WEST COAST TACO COMPANY LLC	BROKEN YOLK CAFE	5120	COLLEGE AVE 	121			SAN DIEGO	CA	92115-2445	N	72211	RESTAURANT	N	9/1/2017	8/31/2021	LLC	29	9	COLLEGE AREA	21	COLLEGE AREA
N	BROKEN WINGZ STILL FLY	BROKENWINGZSTILLFLY	5885	EL CAJON BLVD 	106			SAN DIEGO	CA	92115-3754	Y	4543	CLOTHING SALES	N	4/2/2017	4/30/2021	LLC	1		MID-CITY:EASTERN AREA	21	COLLEGE AREA
N	J DAVIS ENTERPRISES INC	BURGER KING	6135	EL CAJON BLVD 				SAN DIEGO	CA	92115-3915	N	722	FOOD SERVICES & DRINKING PLACES	N	1/4/1984	11/30/2020	CORP	25	9		21	COLLEGE AREA
N	LEYDI Y SANCHEZ CRUZ	C & K CLEANING SERVICES	5925	EL CAJON BLVD 	319			SAN DIEGO	CA	92115-3829	Y	56172	HOTEL/HOME JANITORIAL SERVICES	N	4/16/2019	4/30/2021	SOLE	0	9	MID-CITY:EASTERN AREA	21	COLLEGE AREA
Y	CABDISAMED M AXMED	CABDISAMED M AXMED	7240	EL CAJON BLVD 	14			SAN DIEGO	CA	92115-1833	Y	4853	TAXI & LIMOUSINE SERVICE	N	7/1/2014	6/30/2021	SOLE	0	9	COLLEGE AREA                       	21	COLLEGE AREA
N	M & H TRADING INC	CAFE EUROPE	6784	EL CAJON BLVD 	A			SAN DIEGO	CA	92115-1602	N	722212	COFFEE SHOP AND HOOKAH	N	11/1/2018	10/31/2021	CORP	1	9	COLLEGE AREA	21	COLLEGE AREA
Y	CALIFORNIA COAST CREDIT UNION	CALIFORNIA COAST CREDIT UNION	5500	CAMPANILE DR 	140			SAN DIEGO	CA	92115	N	52111	CREDIT UNION: OFFERING CHECKING, SAVING, LOANS ETC	N	3/3/2014	3/31/2021	CORP	3	9	COLLEGE AREA	21	COLLEGE AREA
Y	CALIFORNIA COMMERCIAL COATINGS INC	CALIFORNIA COMMERCIAL COATINGS INC	6161	EL CAJON BLVD 				SAN DIEGO	CA	92115-3922	N	23521	PAINTING	Y	10/15/2020	10/31/2021	CORP	1	9	MID-CITY:EASTERN AREA	21	COLLEGE AREA
N	CALIFORNIA CREMATION & BURIAL CHAPEL INC	CALIFORNIA CREMATION & BURIAL CHAPEL INC	5880	EL CAJON BLVD 				SAN DIEGO	CA	92115-3743	N	54199	ALL OTH PROF, SCIENTIFIC & TECHNICAL SERVICES	N	3/20/1984	1/31/2021	CORP	8	9	COLLEGE AREA	21	COLLEGE AREA
N	NINM INC	CALIFORNIA KEG & LIQUOR NO 2	6802	EL CAJON BLVD 				SAN DIEGO	CA	92115-1724	N	44512	CONVENIENCE STORE SELLING PRE-PACKAGED FOODS, DRINKS, HOUSEHOLD GOODS AND ALCOHOL PRODUCTS	N	1/15/2018	1/31/2021	CORP	2	9	COLLEGE AREA	21	COLLEGE AREA
N	YASHWANT CHAUDHRI MD APC	CALIFORNIA MENTAL BEHAVIORAL HEALTH	4537	COLLEGE AVE 				SAN DIEGO	CA	92115-4010	N	6211	PSYCHIATRIC PRACTICE	N	10/13/2006	10/31/2021	SCORP	2	9	MID-CITY:EASTERN AREA	21	COLLEGE AREA
N	CALIFORNIA MENTAL BEHAVIORAL HEALTH LLC	CALIFORNIA MENTAL BEHAVIORAL HEALTH LLC	4537	COLLEGE AVE 				SAN DIEGO	CA	92115-4010	N	621399	OFFICES OF ALL OTH MISC HEALTH PRACTITIONERS	N	9/1/2015	8/31/2021	LLC	0	9	MID-CITY:EASTERN AREA	21	COLLEGE AREA
N	JEREMY EDMISTON	CAMPDADS ADVENTURE CO	6161	EL CAJON BLVD 	B442			SAN DIEGO	CA	92115-3922	N	487	4X4 TOURS AND DRIVING EXPERIENCES	N	1/1/2020	12/31/2020	SOLE	0	9	MID-CITY:EASTERN AREA	21	COLLEGE AREA
N	A SABBAGH DDS INC	CAMPUS DENTISTRY	6244	EL CAJON BLVD 	8-Jul			SAN DIEGO	CA	92115-3918	N	62121	GENERAL DENTISTRY	N	7/1/2015	6/30/2021	SCORP	2	9	COLLEGE AREA	21	COLLEGE AREA
N	HYE M IN & SEUNG WON CHOI	CAP & TEE FACTORY SD	5875	EL CAJON BLVD 	101			SAN DIEGO	CA	92115-3769	N	448	CLOTHING RETAIL AND EMBROIDERY STORE	N	6/1/2014	5/31/2021	PARTNR	0	9	MID-CITY:EASTERN AREA	21	COLLEGE AREA
N	WALTON HANISH	CAREFREE COMPLETE AUTO REPAIR	6556	EL CAJON BLVD 				SAN DIEGO	CA	92115-2707	N	81111	AUTO REPAIR SERVICES	N	10/1/2004	9/30/2021	SOLE	0	9	COLLEGE AREA	21	COLLEGE AREA
N	CARMENS DANCE SHOES LLC	CARMENS DANCE SHOES LLC	6506	EL CAJON BLVD 	D			SAN DIEGO	CA	92115-2798	N	4482	SHOE STORES	N	1/6/1984	9/30/2021	LLC	2	9	COLLEGE AREA	21	COLLEGE AREA
Y	MARCO A RODRIGUEZ & MARTHA RODRIGUEZ	CARNITAS URUAPAN FAMILY RESTAURANT	7149	EL CAJON BLVD 				SAN DIEGO	CA	92115-1828	N	72211	RESTAURANT MEXICAN FOOD	N	2/15/2019	2/28/2021	H-W	4	9	MID-CITY:EASTERN AREA	21	COLLEGE AREA
N	STEPHANIE CASANOVA	CASANOVA ART	5885	EL CAJON BLVD 	119			SAN DIEGO	CA	92115-3760	Y	7115	ORIGINAL ART, PRINTS AND STICKERS	N	8/1/2017	7/31/2021	SOLE	0	9	MID-CITY:EASTERN AREA	21	COLLEGE AREA
N	AARSHA AUTO GROUP INC	CASH FOR CARS SAN DIEGO	6866	EL CAJON BLVD 				SAN DIEGO	CA	92115-1724	N	42111	WHOLESALE CARS	N	1/1/2015	12/31/2020	CORP	2	9	COLLEGE AREA	21	COLLEGE AREA
N	PAUL B VANDENBERG	CAST AND BRAND TATTOO COMPANY	7202	EL CAJON BLVD 	B			SAN DIEGO	CA	92115-1829	N	812196	TATTOO STUDIO	N	8/9/2016	8/31/2021	SOLE	3	9	COLLEGE AREA	21	COLLEGE AREA
Y	FREDERICK A LEPOW & ELAINE LEPOW	CDP CONSULTANTS	4857	COLLEGE AVE 	8			SAN DIEGO	CA	92115-3911	Y	54169	COMPUTER CONSULTING	Y	9/3/2020	9/30/2021	H-W	0	9	COLLEGE AREA	21	COLLEGE AREA
Y	CEG MANAGEMENT	CEG MANAGEMENT	5700	EL CAJON BLVD 				SAN DIEGO	CA	92115-3737	N	532	REAL ESTATE SERVICES	N	6/2/2017	6/30/2021	SCORP	3	9	COLLEGE AREA	21	COLLEGE AREA
N	HAMIT ARAS DDS INC	CENTER POINT DENTAL GROUP	6544	EL CAJON BLVD 				SAN DIEGO	CA	92115-2704	N	62121	DENTAL OFFICE/DENTAL SERVICE	N	12/20/2010	12/31/2020	CORP	10	9	COLLEGE AREA	21	COLLEGE AREA
N	CERAMIC HEIGHTS LLC	CERAMIC HEIGHTS LLC	5509	EL CAJON BLVD 	A			SAN DIEGO	CA	92115-3624	N	611699	POTTERY CLASSES	N	9/1/2020	8/31/2021	LLC	0	9	MID-CITY:EASTERN AREA	21	COLLEGE AREA
Y	WAKE N BACON LLC	CHEBA HUT TOASTED SUBS	6364	EL CAJON BLVD 				SAN DIEGO	CA	92115-2643	N	7222	TOASTED SUB SHOP.	N	7/1/2013	6/30/2021	LLC	0	9	COLLEGE AREA	21	COLLEGE AREA
N	SHAN HE	CHERRY BLOSSOM SPA	5837	EL CAJON BLVD 				SAN DIEGO	CA	92115-3741	N	81211	SKIN CARE	N	3/10/2020	3/31/2021	SOLE	0	9	MID-CITY:EASTERN AREA	21	COLLEGE AREA
N	CHIPOTLE MEXICAN GRILL INC	CHIPOTLE MEXICAN  GRILL 2302	6083	EL CAJON BLVD 				SAN DIEGO	CA	92115-3844	N	72211	ACCOMODATION/FOOD SERVICES	N	10/29/2015	10/31/2021	CORP	25	9		21	COLLEGE AREA
N	CHIPOTLE MEXICAN GRILL INC	CHIPOTLE MEXICAN GRILL #2202	5500	CAMPANILE DR 				SAN DIEGO	CA	92115-1701	N	72211	FAST CASUAL MEXICAN RESTAURANT	N	3/17/2014	3/31/2021	CORP	33	9	COLLEGE AREA	21	COLLEGE AREA
N	CHUY'S TACO SHOP INC	CHUY'S TACO SHOP	6663	EL CAJON BLVD 	G			SAN DIEGO	CA	92115-2850	N	722211	FAST FOOD	N	9/18/2017	9/30/2021	CORP	2	9	MID-CITY:EASTERN AREA	21	COLLEGE AREA
N	KELLY CLARK	CLARK KELLY	7047	EL CAJON BLVD 				SAN DIEGO	CA	92115	N	54194	VETERINARY SERVICES	N	7/1/1974	6/30/2021	CORP	2	9	EASTERN AREA*	21	COLLEGE AREA
N	CLEAR CHOICE LIEN SERVICE INC	CLEAR CHOICE LIEN SERVICE INC	6374	EL CAJON BLVD 				SAN DIEGO	CA	92115-2643	N	541	PROFESSIONAL, SCIENTIFIC & TECHNICAL SERVICES	N	11/6/1989	11/30/2020	CORP	7	9	COLLEGE AREA	21	COLLEGE AREA
N	KOUROSH KASHANI	COAST DENTAL CARE 	6585	EL CAJON BLVD 				SAN DIEGO	CA	92115-2706	N	6212	HEALTHCARE  (DENTIST) 	N	12/1/2004	11/30/2020	CORP	0	9	MID-CITY:EASTERN AREA	21	COLLEGE AREA
N	COASTDESIGN & BUILD INC	COAST ENERGY SOLUTION	6602	EL CAJON BLVD 	D			SAN DIEGO	CA	92115-2803	N	2332	GENERAL BUILDING CONTRACTOR	N	8/19/2015	8/31/2021	CORP	10	9	COLLEGE AREA	21	COLLEGE AREA
N	COINSTAR ASSET HOLDINGS LLC	COINSTAR ASSET HOLDINGS LLC	6265	EL CAJON BLVD 				SAN DIEGO	CA	92115-3917	N	812952	AUTOMATED COIN COUNTING KIOSK.	N	5/12/2017	5/31/2021	LLC	1	9	MID-CITY:EASTERN AREA	21	COLLEGE AREA
N	COINSTAR ASSET HOLDINGS LLC	COINSTAR ASSET HOLDINGS LLC 	6155	EL CAJON BLVD 				SAN DIEGO	CA	92115-3915	N	812952	AUTOMATED COIN COUNTING KIOSK.	N	5/12/2017	5/31/2021	LLC	1	9	MID-CITY:EASTERN AREA	21	COLLEGE AREA
N	COINSTAR ASSET HOLDINGS LLC	COINSTAR ASSET HOLDINGS LLC 	6670	MONTEZUMA RD 				SAN DIEGO	CA	92115-2828	N	812952	AUTOMATED COIN COUNTING KIOSK.	N	5/12/2017	5/31/2021	LLC	1	9	COLLEGE AREA	21	COLLEGE AREA
N	MITCHELL  FERENSTEIN & KRISTEN VAN MAELE	COLLEGE ANIMAL HOSPITAL	5653	EL CAJON BLVD 				SAN DIEGO	CA	92115-3736	N	54194	VETERINARY SERVICES	N	10/1/2017	9/30/2021	PARTNR	10	9	MID-CITY:EASTERN AREA	21	COLLEGE AREA
N	A AND B FAMILY INVESTMENT INC	COLLEGE ARCO	5111	COLLEGE AVE 				SAN DIEGO	CA	92115-2411	N	4471	GASOLINE STATIONS	N	5/1/2002	7/31/2021	CORP	4	9	COLLEGE AREA	21	COLLEGE AREA
N	COLLEGE AREA ECONOMIC DEVELOPMENT CORPORATION	COLLEGE AREA BUSINESS DISTRICT	4704	COLLEGE AVE 				SAN DIEGO	CA	92115-3905	N	81356	BUSINESS ASSISTANCE, DISTRICT PROMOTION, ECONOMIC DEVELOPMENT.	N	4/16/2018	4/30/2021	NO/PRF	0	9	COLLEGE AREA	21	COLLEGE AREA
Y	MICHAEL S SCRIVENER	COLLEGE AREA REALTY	6784	EL CAJON BLVD 	K			SAN DIEGO	CA	92115-1602	N	53111	RESIDENTIAL REAL ESTATE SALES NO RENTALS LISTINGS AND BUYERS ONLY. 	N	6/1/2016	5/31/2021	SOLE	0	9	COLLEGE AREA	21	COLLEGE AREA
N	COLLEGE AVENUE BAPTIST CHURCH	COLLEGE AVENUE BAPTIST CHURCH	4747	COLLEGE AVE 				SAN DIEGO	CA	92115-3906	N	81311	EVANGELICAL CHURCH	N	1/1/1997	12/31/2020	NO/PRF	66	9	COLLEGE AREA	21	COLLEGE AREA
N	CINDY T NGUYEN & TUAN A HO	COLLEGE BARBER & SALON	6136	EL CAJON BLVD 				SAN DIEGO	CA	92115-3914	N	812112	BARBER SHOP AND BEAUTY SALON- BOTH HUSBAND AND WIFE ARE OWNERS OF THE BUSINESS.	N	5/1/2008	4/30/2021	H-W	2	9	COLLEGE AREA	21	COLLEGE AREA
Y	COLLEGE FRESH INC	COLLEGE FRESH INC	6055	MONTEZUMA RD 				SAN DIEGO	CA	92115-2426	N	72231	FOOD SERVICE CONTRACTOR	N	8/1/2018	7/31/2021	SCORP	2	9	COLLEGE AREA	21	COLLEGE AREA
N	PHUONG NGUYEN OD	COLLEGE GROVE OPTOMETRY	4560	COLLEGE AVE 				SAN DIEGO	CA	92115-4012	N	62132	OFFICES OF OPTOMETRISTS	N	4/1/2017	3/31/2021	SOLE	2	9	MID-CITY:EASTERN AREA	21	COLLEGE AREA
N	MONTEZUMA ROAD ASSISTANCE LP	COLLEGE PARK AZTEC CORNER	5504	MONTEZUMA RD 	116			SAN DIEGO	CA	92115-1355	N	53131	REAL ESTATE PROPERTY RENTAL	N	8/1/2006	7/31/2021	PARTNR	0	9	COLLEGE AREA	21	COLLEGE AREA
N	SERVICEPRO INC	COLLEGE POSTAL PLUS	6161	EL CAJON BLVD 	B			SAN DIEGO	CA	92115-3987	N	492	PACK AND SHIP	N	1/2/2018	1/31/2021	SCORP	4	9	MID-CITY:EASTERN AREA	21	COLLEGE AREA
N	LUKICH SLAVKO	COLLEGE SMOG CHECK	4642	COLLEGE AVE 				SAN DIEGO	CA	92115-3903	N	811198	ALL OTHER AUTOMOTIVE R&M	N	2/28/1997	2/28/2021	SOLE	0	9	COLLEGE AREA	21	COLLEGE AREA
N	CUONG T LE	COLLEGE SUB SHOP	6150	EL CAJON BLVD 	A			SAN DIEGO	CA	92115-3900	N	722211	SANDWICH SHOP	N	2/10/2020	2/28/2021	SOLE	4	9	COLLEGE AREA	21	COLLEGE AREA
N	MONAJAMI FARIBORZ	COLLESE DAILY GRIND RESTAURANT	6695	EL CAJON BLVD 				SAN DIEGO	CA	92115-2802	N	722	FOOD SERVICES & DRINKING PLACES	N	1/1/2002	12/31/2020	SOLE	2	9	MID-CITY:EASTERN AREA	21	COLLEGE AREA
N	KATHERINE A SORO	COLOR ME KAT	6512	EL CAJON BLVD 	A			SAN DIEGO	CA	92115-2703	N	812115	HAIR SALON, HAIR STYLIST	N	3/22/2019	3/31/2021	SOLE	1	9	COLLEGE AREA	21	COLLEGE AREA
N	COMEAU RACING ENTERPRISES INC	COMEAU RACING ENTERPRISES INC 	7066	EL CAJON BLVD 	B			SAN DIEGO	CA	92115-1824	N	811111	GENERAL AUTOMOTIVE REPAIR	N	1/1/2005	12/31/2020	SCORP	1	9	COLLEGE AREA	21	COLLEGE AREA
N	COMFORT COIN LAUNDRY	COMFORT COIN LAUNDRY	6512	EL CAJON BLVD 	K			SAN DIEGO	CA	92115-2703	N	81231	COIN LAUNDRY	N	1/1/2020	12/31/2020	SCORP	1	9	COLLEGE AREA	21	COLLEGE AREA
N	COMPLETE SOLUTIONS INSURANCE SERVICES INC	COMPLETE SOLUTIONS INSURANCE SERVICES INC	5548	EL CAJON BLVD 				SAN DIEGO	CA	92115-3623	N	52421	INSURANCE SALES AGENCY 	N	8/1/2016	7/31/2021	CORP	2	9	COLLEGE AREA	21	COLLEGE AREA
N	ZUHEIR INC	COMPREHENSIVE GLASS WORKS	6950	EL CAJON BLVD 				SAN DIEGO	CA	92115-1738	N	5419	OTH PROFESSIONAL/SCIENTIFIC/TECHNICAL SERVICE	N	8/26/1991	8/31/2021	CORP	30	9	COLLEGE AREA	21	COLLEGE AREA
Y	CORBINS Q LLC	CORBINS Q	6548	EL CAJON BLVD 				SAN DIEGO	CA	92115-2704	N	81299	CATERING AND FAMERS MARKETS  HOT FOOD	N	12/22/2015	12/31/2020	LLC	0	9	COLLEGE AREA	21	COLLEGE AREA
N	HECTOR CORDOVA	CORDOVA HAIR CO	4812	70TH ST 	22			SAN DIEGO	CA	92115-3023	N	812112	HAIR SALON	N	9/8/2020	9/30/2021	SOLE	1	9	MID-CITY:EASTERN AREA              	21	COLLEGE AREA
N	PATHWAYS COMMUNITY SERVICES LLC	CORNERSTONE	6244	EL CAJON BLVD 	14			SAN DIEGO	CA	92115-3918	N	6241	INDIVIDUAL & FAMILY SERVICES	N	1/10/2001	1/31/2021	LLC	6	9	COLLEGE AREA	21	COLLEGE AREA
N	FELIPE CORTEZ	CORTEZ AUTO REPAIR	7075	EL CAJON BLVD 				SAN DIEGO	CA	92115-1825	N	811198	AUTO REPAIR	N	7/20/2004	7/31/2021	SOLE	1	9	MID-CITY:EASTERN AREA	21	COLLEGE AREA
N	CRAB PUB INC	CRAB PUB	6011	EL CAJON BLVD 	107			SAN DIEGO	CA	92115-3842	N	72211	RESTAURANT 	N	9/13/2015	9/30/2021	CORP	6	9	MID-CITY:EASTERN AREA	21	COLLEGE AREA
N	SMORE CREAMERY INC	CREAM SDSU	5157	COLLEGE AVE 	B			SAN DIEGO	CA	92115-2442	N	722213	ICE CREAM SHOP	N	1/15/2018	1/31/2021	SCORP	5	9	COLLEGE AREA	21	COLLEGE AREA
N	CSCNG LLC	CSCNG LLC	6602	EL CAJON BLVD 	F			SAN DIEGO	CA	92115-2803	N	621999	PROCESSING APPLICANTS FOR TSA SERVICES / EMPLOYER WORKPLACE DRUG COLLECTIONS	N	10/7/2019	10/31/2021	LLC	3	9	COLLEGE AREA                       	21	COLLEGE AREA
N	GIUSEPPE MONACO	CUCINA CAPRESE	4632	COLLEGE AVE 				SAN DIEGO	CA	92115-3903	Y	72232	CATERING	N	7/1/2013	6/30/2021	SOLE	1	9	COLLEGE AREA	21	COLLEGE AREA
N	JESSICA FRIEBERG & KRISTINA TAYLOR	CULTURE HAIR COLLECTIVE	6663	EL CAJON BLVD 	R			SAN DIEGO	CA	92115-2852	N	812112	HAIR SALON	N	8/1/2020	7/31/2021	PARTNR	0	9	MID-CITY:EASTERN AREA	21	COLLEGE AREA
N	GARFIELD BEACH CVS LLC	CVS/PHARMACY #9109	6265	EL CAJON BLVD 				SAN DIEGO	CA	92115-3917	N	44611	PHARMACY	N	6/2/2006	6/30/2021	LLC	27	9	MID-CITY:EASTERN AREA	21	COLLEGE AREA
N	ALFREDO VALENCIA	CYCLE HOUSE	6610	EL CAJON BLVD 	104			SAN DIEGO	CA	92115-2801	N	441221	RETAIL USED MOTORCYCLES	N	3/26/2015	3/31/2021	SOLE	0	9	COLLEGE AREA	21	COLLEGE AREA
Y	CYNTHIA M RAFFETY	CYNTHIA M RAFFETY	5875	EL CAJON BLVD 	203			SAN DIEGO	CA	92115-3770	N	54141	INTERIOR DESIGN SERVICES	N	6/1/2019	5/31/2021	SOLE	0	9	MID-CITY:EASTERN AREA	21	COLLEGE AREA
N	ERIC DAPPER	DAPPER MOBILE BUMPER & BODY REPAIR	6161	EL CAJON BLVD 	B455			SAN DIEGO	CA	92115-3922	Y	8111	BUMPER & BODY REPAIR / BODYWORK & MECHANIC	N	5/18/2020	5/31/2021	SOLE	0	9	MID-CITY:EASTERN AREA	21	COLLEGE AREA
N	DAWIT G NEGUSSE	DAWIT G NEGUSSE	6470	EL CAJON BLVD 	122			SAN DIEGO	CA	92115-2661	Y	48531	TAXI DRIVER	N	8/1/2013	7/31/2021	SOLE	0	9	COLLEGE AREA	21	COLLEGE AREA
N	DBSTATE LLC	DBSTATE LLC	6499	EL CAJON BLVD 				SAN DIEGO	CA	92115-2646	N	722	FOOD SERVICES & DRINKING PLACES	N	9/1/2015	8/31/2021	LLC	0	9	MID-CITY:EASTERN AREA	21	COLLEGE AREA
N	DEN INC	DEN ROOMMATES	6353	EL CAJON BLVD 	124			SAN DIEGO	CA	92115-2655	N	51121	ROOMMATE FINDING APPLICATION	N	10/31/2018	10/31/2021	SCORP	2		MID-CITY:EASTERN AREA	21	COLLEGE AREA
N	DENISE D HIDDEN	DENISE D HIDDEN	4657	COLLEGE AVE 				SAN DIEGO	CA	92115-3904	N	812115	HAIR SERVICES - BOOTH RENTAL	N	1/22/2015	1/31/2021	SOLE	0	9	COLLEGE AREA	21	COLLEGE AREA
N	DIAMOND AUTO BUSINESS SALES INC	DIAMOND AUTO SALES	5625	EL CAJON BLVD 				SAN DIEGO	CA	92115-3736	N	44112	USED CAR DEALERSHIP	N	3/1/2020	2/28/2021	CORP	1	9	MID-CITY:EASTERN AREA	21	COLLEGE AREA
Y	DIANA HODGES-JACKSON	DIANA HODGES-JACKSON	6771	EL CAJON BLVD 				SAN DIEGO	CA	92115-1621	N	453998	ALL OTHER MISC STORE RETAILERS (EXC TOBACCO)	N	1/9/2015	1/31/2021	SOLE	0	9	MID-CITY:EASTERN AREA	21	COLLEGE AREA
Y	ARMANDO JERMAN DIAZ	DIAZ'S GOLDEN AUTO SALES	7268	EL CAJON BLVD 				SAN DIEGO	CA	92115-1829	N	44112	USED AUTO SALES	Y	10/1/2020	9/30/2021	SOLE	1	9	COLLEGE AREA	21	COLLEGE AREA
Y	DO BEAUTY BOUTIQUE	DO BEAUTY BOUTIQUE	5935	EL CAJON BLVD 				SAN DIEGO	CA	92115-3827	N	812112	BEAUTY SALON	N	1/1/2017	12/31/2020	SOLE	0	9	MID-CITY:EASTERN AREA	21	COLLEGE AREA
N	DOLORES GUERRERO	DOLORES GUERRERO	5617	EL CAJON BLVD 				SAN DIEGO	CA	92115-3736	N	812115	BOOTH RENTAL	N	8/4/2006	8/31/2021	SOLE	0	9	MID-CITY:EASTERN AREA	21	COLLEGE AREA
N	EMILY R JOSENHANS	DOMAINE SANTE	5925	EL CAJON BLVD 	210			SAN DIEGO	CA	92115-3838	Y	445299	SELLING REPACKAGED GRAPE CONCENTRATE TO FOOD ESTABLISHMENTS AND STORES.	N	5/15/2016	5/31/2021	SOLE	0	9	MID-CITY:EASTERN AREA	21	COLLEGE AREA
N	SOCAL DOMINOIDS INC	DOMINOS PIZZA #7701	5185	COLLEGE AVE 				SAN DIEGO	CA	92115-2413	N	722211	PIZZERIA RESTAURANT & BEVERAGE	N	7/29/2013	7/31/2021	CORP	10	9	COLLEGE AREA	21	COLLEGE AREA
N	ROMAN RODRIGUEZ	DON ROMAN TACO SHOP	6145	EL CAJON BLVD 	J			SAN DIEGO	CA	92115-3923	N	722211	FAST FOOD MEXICAN STYLE TACO SHOP	N	8/6/2015	8/31/2021	SOLE	3	9	MID-CITY:EASTERN AREA	21	COLLEGE AREA
N	GANDOLA ROBERT A	DR ROBERT A GANDOLA DDS	7125	EL CAJON BLVD 	2			SAN DIEGO	CA	92115-1851	N	62121	OFFICES OF DENTISTS	N	11/7/1988	11/30/2020	SOLE	2	9	MID-CITY:EASTERN AREA	21	COLLEGE AREA
N	ARY H AHMED	DREAM AUTO SALES	6602	EL CAJON BLVD 	A105			SAN DIEGO	CA	92115-2875	N	44112	USED CAR SALES	N	4/13/2018	4/30/2021	SOLE	0	9	COLLEGE AREA	21	COLLEGE AREA
N	MOHAMMAD MAZIN ELAMAIREH	DRIVE ME GROUP	6244	EL CAJON BLVD 	2			SAN DIEGO	CA	92115-3918	N	44112	USED CAR DEALERSHIP	N	4/1/2020	3/31/2021	SOLE	1	9	COLLEGE AREA	21	COLLEGE AREA
N	MOHAMMAD MAZIN NAYEF ELAMAIREH	DRIVE ME GROUP	5773	MONTEZUMA RD 				SAN DIEGO	CA	92115-2362	Y	42111	WHOLESALE CARS	N	3/29/2019	3/31/2021	SOLE	0	9	COLLEGE AREA	21	COLLEGE AREA
N	DRIVE ME GROUP LLC	DRIVE ME GROUP REGISTRATION SERVICE	6244	EL CAJON BLVD 	2			SAN DIEGO	CA	92115-3918	N	56141	REGISTRATION SERVICE	N	10/11/2019	10/31/2021	LLC	1	9	COLLEGE AREA	21	COLLEGE AREA
N	DRYWALL SPECIALTY CONTRACTORS INC	DRYWALL SPECIALTIES	6512	EL CAJON BLVD 	C			SAN DIEGO	CA	92115-2703	N	23542	DRYWALL	N	7/6/2009	7/31/2021	SCORP	25	9	COLLEGE AREA	21	COLLEGE AREA
N	SUN KIM	DUET COFFEE	6526	EL CAJON BLVD 	1			SAN DIEGO	CA	92115-2704	N	722	COFFEE SHOP	N	1/1/2016	12/31/2020	CORP	1	9	COLLEGE AREA	21	COLLEGE AREA
N	BASHAR COUNTRY MARKET & LIQUOR	DUKES LIQUOR	7029	EL CAJON BLVD 				SAN DIEGO	CA	92115-1825	N	44531	LIQUOR STORE	N	1/4/2017	1/31/2021	SCORP	1	9	MID-CITY:EASTERN AREA	21	COLLEGE AREA
N	BRANDON R GRAMSE/ NELLIE R DEL ROSARIO	E CIG CREATIONS	6375	EL CAJON BLVD 	C			SAN DIEGO	CA	92115-2656	N	4543	RETAIL OF ELECTRONIC CIGARETTES	N	10/21/2013	10/31/2021	PARTNR	4	9	MID-CITY:EASTERN AREA	21	COLLEGE AREA
N	EC TATTOO #2 LLC	EC TATTOO #2 LLC	5850	MONTEZUMA RD 				SAN DIEGO	CA	92115-2340	N	812196	TATTOOING AND PERICING & RETAIL	N	10/1/2008	9/30/2021	LLC	0	9	COLLEGE AREA	21	COLLEGE AREA
N	ECOATM LLC	ECOATM INC #0220	6670	MONTEZUMA RD 				SAN DIEGO	CA	92115-2828	N	812959	SECONDHAND DEALER KIOSK INSIDE GROCERY (SEE ATTACHED STATEMENT OF OPERATIONS)	N	9/1/2016	8/31/2021	LLC	0	9	COLLEGE AREA	21	COLLEGE AREA
Y	215 ENTERPRISES INC	EFFIN'S	6164	EL CAJON BLVD 				SAN DIEGO	CA	92115-3914	N	72241	BAR TAVEN / RESTAURANT	N	9/1/2009	2/28/2021	SCORP	12	9	COLLEGE AREA	21	COLLEGE AREA
Y	EL CAJON COLLEGE HBQ INC	EL CAJON COLLEGE HBQ INC	6083	EL CAJON BLVD 	B1			SAN DIEGO	CA	92115-3844	N	7221	RESTAURANT.	N	12/18/2017	12/31/2020	CORP	1	9	MID-CITY:EASTERN AREA	21	COLLEGE AREA
N	BIG DADDY'S OIL 24 INC	EL CAJON GAS & MINI MARKET	6301	EL CAJON BLVD 				SAN DIEGO	CA	92115-2642	N	44711	GAS STATION /CONVENIENCE STORE34	N	3/16/2009	3/31/2021	CORP	8	9	MID-CITY:EASTERN AREA	21	COLLEGE AREA
N	MIGUEL & GUADALUPE & ERIC & JESSICA SANDOVAL	EL RODEO MEXICAN FOOD	6924	EL CAJON BLVD 				SAN DIEGO	CA	92115-1738	N	7221	FULL-SERVICE RESTAURANTS	N	10/25/2000	11/30/2020	PARTNR	2	9	COLLEGE AREA	21	COLLEGE AREA
N	ELITE SECURITY AND SURVEILLANCE INC	ELECTRONIC SECURITY SYSTEMS	6350	EL CAJON BLVD 				SAN DIEGO	CA	92115-2641	N	56162	SECURITY SYSTEMS INSTALLATION  AUDIO  ACCESS CONTROL  AND SURVEILLANCE.	N	1/6/2015	12/31/2020	CORP	7	9	COLLEGE AREA	21	COLLEGE AREA
N	VALENZUELAS INC	ELSA'S KITCHEN	7022	EL CAJON BLVD 				SAN DIEGO	CA	92115-1824	N	722211	FAST FOOD RESTAURANT	N	9/6/2004	9/30/2021	CORP	0	9	COLLEGE AREA	21	COLLEGE AREA
Y	ROBERT J KOPPY	EMPIRE COLLECTIBLES	5795	EL CAJON BLVD 				SAN DIEGO	CA	92115-3738	N	454112	SELLING USED COMIC BOOKS & MAGAZINES OVER THE INTERNET OCCASIONAL SET UP AT SHOWS IN AREA	N	7/16/2012	7/31/2021	SOLE	0	9	MID-CITY:EASTERN AREA	21	COLLEGE AREA
N	BIANCA M SACCO	EPIC WINGS N THINGS	5120	COLLEGE AVE 	126			SAN DIEGO	CA	92115-2445	N	722211	RESTAURANT	N	12/1/2017	11/30/2020	SOLE	30	9	COLLEGE AREA	21	COLLEGE AREA
N	EUREKA RESTAURANT GROUP LLC	EUREKA SDSU	5140	COLLEGE AVE 	111			SAN DIEGO	CA	92115-2446	N	72211	FULL SERVICE RESTAURANT	N	8/18/2017	8/31/2021	LLC	100	9	COLLEGE AREA                       	21	COLLEGE AREA
Y	EVERBOWL LLC	EVERBOWL	5120	COLLEGE AVE 	124			SAN DIEGO	CA	92115-2445	N	72221	BOWLS AND SMOOTHIES	N	1/25/2019	1/31/2021	LLC	15	9	COLLEGE AREA	21	COLLEGE AREA
N	EXCELLENCE SERVICE N TOWING INC	EXCELLENCE SERVICE N TOWING INC	6970	EL CAJON BLVD 				SAN DIEGO	CA	92115-1738	N	811111	AUTO REPAIR	N	1/1/2008	12/31/2020	CORP	0	9	COLLEGE AREA	21	COLLEGE AREA
N	EYEMAZING BEAUTY BAR	EYEMAZING BEAUTY BAR	6602	EL CAJON BLVD 	A103			SAN DIEGO	CA	92115-2875	N	81211	EYELASH EXTENSIONS	N	1/1/2018	12/31/2020	CORP	0	9	COLLEGE AREA	21	COLLEGE AREA
N	FERNANDO TAMAYO MARTINEZ	F T M MAINTNENANCE/SERVICE	7240	EL CAJON BLVD 	9			SAN DIEGO	CA	92115-1833	Y	56172	COMMERCIAL & RESIDENTIAL SERVICES	N	4/1/1995	3/31/2021	SOLE	0	9	COLLEGE AREA	21	COLLEGE AREA
N	SEMILLON INC	FAIRLANE CLEANERS	6302	EL CAJON BLVD 				SAN DIEGO	CA	92115-2641	N	8121	PERSONAL CARE SERVICES	N	6/2/1990	6/30/2021	CORP	6	9	COLLEGE AREA	21	COLLEGE AREA
N	KATHERINE SCHLEIN	FAMILY CONNECTION CHIROPRACTIC	5714	EL CAJON BLVD 				SAN DIEGO	CA	92115-3737	N	62131	CHIROPRACTOR	N	2/1/2018	1/31/2021	SOLE	0	9	COLLEGE AREA	21	COLLEGE AREA
N	FAMILY LOAN AND PAWN INC	FAMILY LOAN AND PAWN	6375	EL CAJON BLVD 	B			SAN DIEGO	CA	92115-2656	N	4533	USED MERCHANDISE STORES	N	2/24/2012	2/28/2021	SCORP	2	9	MID-CITY:EASTERN AREA	21	COLLEGE AREA
Y	TRAM B LE	FAMILY MEDICINE CLINIC	5507	EL CAJON BLVD 	L			SAN DIEGO	CA	92115-3624	N	621111	MEDICINE CLINIC.	N	12/1/2008	11/30/2020	SOLE	3	9	MID-CITY:EASTERN AREA	21	COLLEGE AREA
Y	JOSH GREENBAUM	FAMILY STYLE	6784	EL CAJON BLVD 	J			SAN DIEGO	CA	92115-1602	N	44	RETAIL	N	9/9/2019	9/30/2021	SOLE	0	9	COLLEGE AREA	21	COLLEGE AREA
Y	FAMILY STYLE INC	FAMILY STYLE INC	6784	EL CAJON BLVD 	J			SAN DIEGO	CA	92115-1602	N	72233	PIZZA DELIVERY	N	11/2/2018	11/30/2020	CORP	5	9	COLLEGE AREA	21	COLLEGE AREA
N	LASHEKITA SUTTON & DAVID GALVEZ	FANCY'S BEAUTY AND THE BEAST LOUNGE	5549	EL CAJON BLVD 				SAN DIEGO	CA	92115-3624	N	812112	BEAUTY SALON	N	1/24/2019	1/31/2021	H-W	0	9	MID-CITY:EASTERN AREA	21	COLLEGE AREA
N	NALB INC	FANTASTIC SAMS	6165	EL CAJON BLVD 	K			SAN DIEGO	CA	92115-3927	N	812112	RETAIL TRADE	N	2/7/2017	2/28/2021	CORP	0	9	MID-CITY:EASTERN AREA	21	COLLEGE AREA
N	FAST AUTO LOANS INC	FAST AUTO AND PAYDAY LOANS	6787	EL CAJON BLVD 				SAN DIEGO	CA	92115-1621	N	522291	CONSUMER LENDING	N	3/1/2012	2/28/2021	CORP	3	9	MID-CITY:EASTERN AREA	21	COLLEGE AREA
N	FEATHERINGILL MORTUARY	FEATHERINGILL MORTUARY	6322	EL CAJON BLVD 				SAN DIEGO	CA	92115-2641	N	81221	FUNERAL SERVICES	N	9/5/2019	9/30/2021	CORP	13	9	COLLEGE AREA	21	COLLEGE AREA
N	FERAL CAT COALITION	FERAL CAT COALITION	7125	EL CAJON BLVD 	1			SAN DIEGO	CA	92115-1851	N	6223	VETERINARY CLINIC.	N	7/1/2017	6/30/2021	CORP	4	9	MID-CITY:EASTERN AREA	21	COLLEGE AREA
Y	FEVEN Z HAGOPIAN	FEVEN Z HAGOPIAN	5859	EL CAJON BLVD 	7			SAN DIEGO	CA	92115-3781	Y	71151	CIRCUS PERFORMER	N	1/1/2016	12/31/2020	SOLE	0	9	MID-CITY:EASTERN AREA	21	COLLEGE AREA
N	FINELINE ENTERTAINMENT INC	FINELINE ENTERTAINMENT INC	5885	EL CAJON BLVD 	210			SAN DIEGO	CA	92115-3757	N	541	PROFESSIONAL, SCIENTIFIC & TECHNICAL SERVICES	N	5/1/2005	4/30/2021	CORP	0	9	MID-CITY:EASTERN AREA	21	COLLEGE AREA
N	ZACH STOFFERAHN	FISH PIT	4632	COLLEGE AVE 				SAN DIEGO	CA	92115-3903	N	7221	TO GO RESTAURANT	N	10/11/2016	10/31/2021	SOLE	2	9	COLLEGE AREA	21	COLLEGE AREA
Y	FITRIDER	FITNESS IS MY SICKNESS WOMENS TRAINING	7202	EL CAJON BLVD 	B			SAN DIEGO	CA	92115-1829	N	611621	FITNESS	N	6/1/2018	5/31/2021	SCORP	2	9	COLLEGE AREA	21	COLLEGE AREA
N	MARIE BROWN BYRD	FLOWERS FOR YOU	6995	EL CAJON BLVD 				SAN DIEGO	CA	92115-1739	N	45311	FLOWER STAND	N	4/2/2009	4/30/2021	SOLE	0	9	MID-CITY:EASTERN AREA	21	COLLEGE AREA
N	FOUR SEASONS LAWN AERATION INC	FOUR SEASONS LAWN AERATION - PERMA GREEN LAWN CARE	5722	EL CAJON BLVD 				SAN DIEGO	CA	92115-3737	N	56173	AERATE/FERTILIZE LAWNS & WEED CONTROL	N	1/14/2000	1/31/2021	CORP	10	9	COLLEGE AREA	21	COLLEGE AREA
N	FREEDOM GUITAR INC	FREEDOM GUITAR INC	6334	EL CAJON BLVD 				SAN DIEGO	CA	92115-2641	N	4539	OTHER MISCELLANEOUS STORE RETAILERS	N	1/28/1987	11/30/2021	CORP	2	9	COLLEGE AREA	21	COLLEGE AREA
Y	FREEWAY INSURANCE SERVICES INC	FREEWAY INSURANCE SERVICES INC	6915	EL CAJON BLVD 				SAN DIEGO	CA	92115-1754	N	52421	SELLING PERSONAL INSURANCE TO THE GENERAL PUBLIC	N	10/16/2009	10/31/2021	CORP	7	9	MID-CITY:EASTERN AREA	21	COLLEGE AREA
N	FRESH SOIL MENTORING & TRANSITIONAL CENTER	FRESH SOIL MENTORING & TRANSITIONAL CENTER	4825	70TH ST 	11			SAN DIEGO	CA	92115-3027	N	44	RETAIL	N	3/30/2019	3/31/2021	CORP	0	9	MID-CITY:EASTERN AREA	21	COLLEGE AREA
N	FROMEX PHOTO LAB INC	FROMEX PHOTO LAB INC	6370	EL CAJON BLVD 				SAN DIEGO	CA	92115-2643	N	54192	PHOTOGRAPHIC SERVICES	N	12/1/1998	11/30/2020	CORP	3	9	COLLEGE AREA	21	COLLEGE AREA
N	AMBER NEWSOME	FUSION HAIR STUDIO	6244	EL CAJON BLVD 	9B			SAN DIEGO	CA	92115-3918	N	812112	HAIR SALON	N	10/15/2019	10/31/2021	SOLE	1	9	COLLEGE AREA                       	21	COLLEGE AREA
N	GALAXY AUTO GROUP INC	GALAXY AUTO GROUP INC	7268	EL CAJON BLVD 				SAN DIEGO	CA	92115-1829	N	44112	USED CAR DEALERS	N	6/14/2018	6/30/2021	CORP	0	9	COLLEGE AREA	21	COLLEGE AREA
Y	ASEEL GARDEN FRESH GRILL & SMOOTHIE INC	GARDEN FRESH GRILL & SMOOTHIE INC	6165	EL CAJON BLVD 	F			SAN DIEGO	CA	92115-3927	N	722211	RESTAURANT SELLING HOT MEALS	N	9/1/2012	8/31/2021	CORP	10	9	MID-CITY:EASTERN AREA	21	COLLEGE AREA
Y	GARETH R PARKER	GARETH R PARKER	6545	MONTEZUMA RD 	27			SAN DIEGO	CA	92115-2810	Y	5414	ONLINE STREAMER 	N	1/1/2017	12/31/2020	SOLE	0	9	COLLEGE AREA	21	COLLEGE AREA
Y	GEARY CRE SERVICES INC	GEARY CRE SERVICES INC	5700	EL CAJON BLVD 				SAN DIEGO	CA	92115-3737	N	532	REAL ESTATE SERVICES	N	3/22/2017	3/31/2021	SCORP	2	9	COLLEGE AREA	21	COLLEGE AREA
N	SANDINO CABRERA	GERIZIM GROUP	6512	EL CAJON BLVD 	H			SAN DIEGO	CA	92115-2703	N	541613	BUSINESS BRANDING AND MARKETING	N	7/21/2020	7/31/2021	SOLE	0	9	COLLEGE AREA	21	COLLEGE AREA
N	PAGANO ALFRED S/TYLER SUSAN A	GIANT PHOTO SERVICE	7245	EL CAJON BLVD 				SAN DIEGO	CA	92115-1830	N	54192	PHOTOGRAPHIC SERVICES	N	11/30/1984	9/30/2021	CORP	5	9	MID-CITY:EASTERN AREA	21	COLLEGE AREA
N	TH NUTRITION LLC	GNC AT CAMPUS PLAZA	6165	EL CAJON BLVD 				SAN DIEGO	CA	92115-3927	N	44619	OTHER HEALTH & PERSONAL CARE STORES	N	4/1/2017	3/31/2021	LLC	10	9	MID-CITY:EASTERN AREA	21	COLLEGE AREA
N	GO WIRELESS INC	GO WIRELESS INC	5140	COLLEGE AVE 	113			SAN DIEGO	CA	92115-2446	N	4431	VERIZON WIRELESS SALES.	N	10/24/2017	10/31/2021	CORP	5	9	COLLEGE AREA                       	21	COLLEGE AREA
Y	JEONG SOOK SON	GOLD SPA	6957	EL CAJON BLVD 	104			SAN DIEGO	CA	92115-1755	N	812194	MASSAGE SERVICES.	N	2/14/2011	2/28/2021	SOLE	0	9	MID-CITY:EASTERN AREA	21	COLLEGE AREA
N	YEON MI RINN	GOLD SPA	6957	EL CAJON BLVD 	104			SAN DIEGO	CA	92115-1755	N	812194	MASSAGE TECHINICIAN.	N	11/1/2019	10/31/2021	SOLE	0	9	MID-CITY:EASTERN AREA	21	COLLEGE AREA
Y	GOLDSTREAM ENTERPRISES LLC	GOLDSTREAM ENTERPRISES LLC	6353	EL CAJON BLVD 	124		PMB 196	SAN DIEGO	CA	92115-2655	N	454112	WEB RETAILER	N	1/14/2016	1/31/2021	LLC	0	9	MID-CITY:EASTERN AREA	21	COLLEGE AREA
N	NGUYEN/CHAU	GREAT CUT CENTER	6663	EL CAJON BLVD 	R			SAN DIEGO	CA	92115-2852	N	812112	BEAUTY SALONS	N	11/18/1986	11/30/2020	PARTNR	0	9	MID-CITY:EASTERN AREA	21	COLLEGE AREA
N	HENG NGUON T	GREAT HAPPINESS	6987	EL CAJON BLVD 				SAN DIEGO	CA	92115	N	7221	FULL-SERVICE RESTAURANTS	N	4/1/1997	3/31/2021	SOLE	3	9	EASTERN AREA*	21	COLLEGE AREA
Y	HOK B LAU	GREAT WALL EXPRESS	6375	EL CAJON BLVD 	E			SAN DIEGO	CA	92115-2656	N	72211	CHINESE FAST FOOD	N	1/1/2019	12/31/2020	SOLE	5	9	MID-CITY:EASTERN AREA	21	COLLEGE AREA
N	LUMA SHORIS	GREEK SMOKE SHOP	7027	EL CAJON BLVD 				SAN DIEGO	CA	92115-1825	N	454	SALES	N	8/6/2019	8/31/2021	SOLE	0	9	MID-CITY:EASTERN AREA	21	COLLEGE AREA
Y	WILLIAM PATO	GREEK SMOKE SHOP	7027	EL CAJON BLVD 				SAN DIEGO	CA	92115-1825	N	453991	GREEK SMOKE SHOP	N	9/14/2019	9/30/2021	SOLE	1	9	MID-CITY:EASTERN AREA	21	COLLEGE AREA
N	GREENLIGHT AUTO GROUP INC	GREENLIGHT AUTO GROUP INC	5824	EL CAJON BLVD 				SAN DIEGO	CA	92115-3740	N	44112	USED CARS SALES	N	11/20/2014	11/30/2020	SCORP	3	9		21	COLLEGE AREA
N	G&R CHIROPRACTIC INC	GREGG-RYAN CHIROPRACTIC INC	7151	EL CAJON BLVD 	J			SAN DIEGO	CA	92115-1819	N	6213	OFFICES OF OTHER HEALTH PRACTITIONERS	N	11/21/1983	7/31/2021	CORP	5	9	MID-CITY:EASTERN AREA	21	COLLEGE AREA
N	GRIZZLY'S BARBER LIMITED LIABILITY CO	GRIZZLY'S BARBERSHOP	6820	EL CAJON BLVD 				SAN DIEGO	CA	92115-1724	N	812111	BARBERSHOP	N	1/1/2019	12/31/2020	LLC	0	9	COLLEGE AREA	21	COLLEGE AREA
Y	ROBERTO C GUERRERO PACHECO	GUERRERO PACHECO UBER	6560	MONTEZUMA RD 	316			SAN DIEGO	CA	92115-2862	Y	485999	UBER DRIVER	N	1/1/2019	12/31/2020	SOLE	0		COLLEGE AREA                       	21	COLLEGE AREA
Y	GWENDOLIN A. AYUK OBEN	GWENDY AFRICAN CLOTHING	5525	EL CAJON BLVD 				SAN DIEGO	CA	92115-3624	N	44	RETAIL	N	8/1/2018	7/31/2021	SOLE	0	9	MID-CITY:EASTERN AREA	21	COLLEGE AREA
N	HELEN L HERNANDEZ	HAIR BY HELEN	6512	EL CAJON BLVD 	A			SAN DIEGO	CA	92115-2703	N	812115	HAIR STYLIST	N	2/22/2016	2/28/2021	SOLE	0	9	COLLEGE AREA	21	COLLEGE AREA
N	SVETLANA JOYNSON	HAIR BY LANA	6512	EL CAJON BLVD 	A			SAN DIEGO	CA	92115-2703	N	812115	BEAUTY SALON - BOOTH RENTAL.	N	5/1/2016	4/30/2021	SOLE	1	9	COLLEGE AREA	21	COLLEGE AREA
N	ASHLEY INGRAM	HAIRXCASH	7285	EL CAJON BLVD 				SAN DIEGO	CA	92115-1835	N	812115	HAIR BRAIDER AND NATURAL HAIR STYLIST	N	10/29/2019	10/31/2021	SOLE	0	9	MID-CITY:EASTERN AREA	21	COLLEGE AREA
N	XIAOFEI YI	HAPPY FEET SPA	6956	EL CAJON BLVD 				SAN DIEGO	CA	92115-1738	N	812198	FOOT MASSAGE / BODY MASSAGE	N	5/6/2019	5/31/2021	SOLE	2	7	COLLEGE AREA	21	COLLEGE AREA
Y	WENBIN HUA	HAPPY LAND MASSAGE	5837	EL CAJON BLVD 				SAN DIEGO	CA	92115-3741	N	812198	MASSAGE THERAPY	N	11/3/2017	11/30/2020	SOLE	2	9	MID-CITY:EASTERN AREA	21	COLLEGE AREA
N	HEADQUARTERS BARBERSHOP	HEADQUARTERS BARBERSHOP	6244	EL CAJON BLVD 	30B			SAN DIEGO	CA	92115-3918	N	454	SALES	N	10/1/2019	9/30/2021	LLC	0	9	COLLEGE AREA                       	21	COLLEGE AREA
N	AYUMI HENDERSON	HEALING TIP TOES AND AYUMI'S OASIS SELF DEFENSE	6663	MONTEZUMA RD 	32			SAN DIEGO	CA	92115-2837	N	812198	MASSAGE BUSINESS	N	9/16/2019	9/30/2021	SOLE	0	9	COLLEGE AREA	21	COLLEGE AREA
N	SHAN HE	HEALTHY FOOT CARE SPA	6917	EL CAJON BLVD 				SAN DIEGO	CA	92115-1754	N	621399	HERBAL FOOT SOAK, FOOT MASSAGE, AND BODY MASSAGE.	N	11/1/2015	10/31/2021	SOLE	2	9	MID-CITY:EASTERN AREA	21	COLLEGE AREA
N	ZHIXIANG DAI	HEALTHY FOOT CARE SPA	6917	EL CAJON BLVD 				SAN DIEGO	CA	92115-1754	N	812198	MASSAGE THERAPIST	N	3/21/2019	3/31/2021	SOLE	0	9	MID-CITY:EASTERN AREA	21	COLLEGE AREA
N	XIAOHONG CHEN	HEALTHY SPA	5875	EL CAJON BLVD 	101			SAN DIEGO	CA	92115-3769	N	812198	MASSAGE THERAPY	N	10/15/2018	10/31/2021	SOLE	0	9	MID-CITY:EASTERN AREA	21	COLLEGE AREA
N	HEARWELL HEARING AID CENTER	HEARWELL HEARING AID CENTER	6150	EL CAJON BLVD 	D			SAN DIEGO	CA	92115-3900	N	45399	SALES & SERVICE OF HEARING AIDS	N	7/10/2008	7/31/2021	SCORP	3	9	COLLEGE AREA	21	COLLEGE AREA
N	HIMALAYAN YAK & YETI RESTAURANT LLC	HIMALAYAN YAK & YETI	6784	EL CAJON BLVD 	D			SAN DIEGO	CA	92115-1602	N	72211	RESTAURANT	N	9/11/2018	9/30/2021	LLC	1	9	COLLEGE AREA	21	COLLEGE AREA
Y	RONAN O'NEILL	HOTELLATTICE	6053	ADAMS AVE 				SAN DIEGO	CA	92115-3808	Y	56199	SERVICE TO CONNECT HOTELIERS	N	10/12/2018	10/31/2021	SOLE	0	9	COLLEGE AREA	21	COLLEGE AREA
N	GARY WICHANSKY & JAMES MICHAEL HUDSON	HOTOPP ASSOCIATES LIMITED	5875	EL CAJON BLVD 	202			SAN DIEGO	CA	92115-3770	N	54149	ENTERTAINMENT SET DESIGN	N	3/1/2015	2/28/2021	PARTNR	4	6	MID-CITY:EASTERN AREA	21	COLLEGE AREA
N	ASHLEY INGRAM & MELANIE SAWYER	HOUSE OF DIMES	7285	EL CAJON BLVD 				SAN DIEGO	CA	92115-1835	N	45399	HAIR VENDOR	N	4/21/2020	4/30/2021	PARTNR	0	9	MID-CITY:EASTERN AREA	21	COLLEGE AREA
N	HOUSE OF IDEAS INC	HOUSE OF IDEAS INC	5511	EL CAJON BLVD 				SAN DIEGO	CA	92115	N	54199	ALL OTH PROF, SCIENTIFIC & TECHNICAL SERVICES	N	5/5/1986	4/30/2021	CORP	19	9	EASTERN AREA*	21	COLLEGE AREA
N	HUAN TONY BAO NGO DDS	HUAN TONY BAO NGO DDS	6663	EL CAJON BLVD 	C & D			SAN DIEGO	CA	92115-2849	N	6212	DENTAL OFFICE	N	6/1/2005	5/31/2021	SOLE	2	9	MID-CITY:EASTERN AREA	21	COLLEGE AREA
N	JUAN MANUEL JIMENEZ & EDNA V LUQUENO	I DENT TEETH CAL	6244	EL CAJON BLVD 	4			SAN DIEGO	CA	92115-3918	N	339116	DENTAL LABORATORY WE FABRICATE DENTORES AND PARTIALS	N	11/24/2014	11/30/2020	H-W	0	9	COLLEGE AREA	21	COLLEGE AREA
Y	ICE BOX LLC	ICE BOX LLC	4649	COLLEGE AVE 				SAN DIEGO	CA	92115-3904	N	722213	FROZEN BEVERAGE & SNACK BAR / BEVERAGES AND DESSERT SHOP	N	7/8/2019	7/31/2021	LLC	8	9	COLLEGE AREA	21	COLLEGE AREA
Y	IDYLLIC EATERIES LLC	IDYLLIC EATERIES LLC	6145	EL CAJON BLVD 	H			SAN DIEGO	CA	92115-3923	Y	454	ICE CREAM SALES	N	2/21/2020	2/28/2021	LLC	1	9	MID-CITY:EASTERN AREA	21	COLLEGE AREA
N	RANI SHATTAH	ILLUSION 2 SMOKE SHOP	6957	EL CAJON BLVD 	101			SAN DIEGO	CA	92115-1755	N	453991	TOBACCO PRODUCTS RETAILER	N	9/4/2018	9/30/2021	SOLE	0	9	MID-CITY:EASTERN AREA	21	COLLEGE AREA
N	THE BLAK MRKT LLC	IN THE CUT BARBER STUDIO	7283	EL CAJON BLVD 				SAN DIEGO	CA	92115-1835	N	812111	BARBER SHOP	N	10/11/2019	10/31/2021	LLC	0	9	MID-CITY:EASTERN AREA	21	COLLEGE AREA
Y	KHOSROW ROUZBEHANI	INFORMAX	5488	EL CAJON BLVD 				SAN DIEGO	CA	92115-3622	N	42111	USED CAR WHOLESALE	N	4/15/2019	4/30/2021	SOLE	1	9	COLLEGE AREA	21	COLLEGE AREA
N	THE O FARRELL CHARTER SCHOOLS	INGENUITY CHARTER SCHOOL	6530	EL CAJON BLVD 				SAN DIEGO	CA	92115-2704	N	81356	THIS LOCATION SERVES AS A NACADEMIC RESOURCE CENTER THAT SERVES STUDENTS AND FAMILIES STUDENTS CHECK OUT MATERIALS AND RECEIVE ACADEMIC COUNSELING AND SUPPORT	N	7/1/2016	6/30/2021	NO/PRF	0	9	COLLEGE AREA	21	COLLEGE AREA
N	HOANG & ASSOCIATES INC	INSTA PRINT SD	6425	EL CAJON BLVD 				SAN DIEGO	CA	92115-2646	N	32311	PRINTING SERVICES	N	5/4/1998	5/31/2021	CORP	0	9	MID-CITY:EASTERN AREA	21	COLLEGE AREA
N	NGUYEN L H LE	INTEL CARE MEDICAL CLINIC/INTELLIGENT CARE MEDICAL	5507	EL CAJON BLVD 	B			SAN DIEGO	CA	92115-3624	N	6214	MEDICAL CLINIC	N	6/1/2003	5/31/2021	SOLE	2	9	MID-CITY:EASTERN AREA	21	COLLEGE AREA
N	NEELAKANTAN RAMINENI MD INC	INTERNAL MEDICINE PRIMARY CARE PRIVATE PRACTICE	4537	COLLEGE AVE 				SAN DIEGO	CA	92115-4010	N	6211	OFFICES OF PHYSICIANS	N	6/27/1985	6/30/2021	CORP	1	9	MID-CITY:EASTERN AREA	21	COLLEGE AREA
N	CANH LE AND NGA LE	INTERNATIONAL IMAGE SALON 	7090	EL CAJON BLVD 				SAN DIEGO	CA	92115-1824	N	812112	BARBER, BEAUTY & NAILS AND RETAIL HAIR & NAIL SUPPLIES	N	8/1/2003	7/31/2021	H-W	0	9	COLLEGE AREA                       	21	COLLEGE AREA
N	REZAI INC	IQ GRAPHICS	6512	EL CAJON BLVD 	H			SAN DIEGO	CA	92115-2703	N	323	PRINT SHOP	N	3/12/1997	3/31/2021	CORP	0	9	COLLEGE AREA	21	COLLEGE AREA
N	HERLEHY INC	ITAN SOLARIUMS	6145	EL CAJON BLVD 	E/F			SAN DIEGO	CA	92115-3923	N	812195	TANNING SALON - UV & NON UV TANNING SERVICES	N	3/1/2010	2/28/2021	CORP	5	9	MID-CITY:EASTERN AREA	21	COLLEGE AREA
N	SANVANNAH GUAN	IVY MASSAGE	7034	EL CAJON BLVD 				SAN DIEGO	CA	92115-1824	N	812193	MASSAGE  PARLOR	N	11/22/2019	11/30/2020	SOLE	1	9	COLLEGE AREA	21	COLLEGE AREA
Y	PGC FOODS LLC	JACK IN THE BOX	5155	COLLEGE AVE 				SAN DIEGO	CA	92115-2413	N	722211	FAST FOOD RESTAURANT	N	12/4/2017	12/31/2020	LLC	30	9	COLLEGE AREA	21	COLLEGE AREA
N	JANET JOHNSON MFT, LPCC	JANET JOHNSON MFT, LPCC	6244	EL CAJON BLVD 	3			SAN DIEGO	CA	92115-3918	N	62419	MARRIAGE FAMILY THERAPY/LICENSED PROFESSIONAL CLINCIAL COUNSELOR	N	6/20/2019	6/30/2021	SOLE	0	9	COLLEGE AREA	21	COLLEGE AREA
N	JASMINE BROOKS	JASSIE'S NAIL LOUNGE	6244	EL CAJON BLVD 	9C			SAN DIEGO	CA	92115-3918	N	812113	NAIL SALON	N	6/24/2019	6/30/2021	SOLE	0		COLLEGE AREA                       	21	COLLEGE AREA
Y	ANGELA M MCNEEL	JAZZERCISE	6360	EL CAJON BLVD 				SAN DIEGO	CA	92115-2643	N	611621	EXERCISE. JAZZERCISE	N	1/1/2017	12/31/2020	SOLE	10	9	COLLEGE AREA	21	COLLEGE AREA
Y	JENNIFER IMAZEKI	JENNIFER IMAZEKI	5500	CAMPANILE DR 	4485			SAN DIEGO	CA	92115	N	541615	CONSULTING	N	6/1/2005	5/31/2021	SOLE	0	9	COLLEGE AREA                       	21	COLLEGE AREA
Y	GSAHTC INC	JERSEY MIKES SUBS	6083	EL CAJON BLVD 	A			SAN DIEGO	CA	92115-3844	N	722211	SELLING SUB SANDWICHES.	N	8/17/2011	8/31/2021	CORP	18	9	MID-CITY:EASTERN AREA	21	COLLEGE AREA
N	JIEZHEN YE	JIEZHEN YE EXPRESS ATM	5522	EL CAJON BLVD 				SAN DIEGO	CA	92115-3623	N	52599	ATM	N	1/2/2020	1/31/2021	SOLE	0	9	COLLEGE AREA	21	COLLEGE AREA
Y	TEAM CAR CARE WEST LLC	JIFFY LUBE #2996	5813	EL CAJON BLVD 				SAN DIEGO	CA	92115-3741	N	811191	QUICK OIL AND LUBE	N	10/1/2018	9/30/2021	LLC	7	9		21	COLLEGE AREA
Y	JOHN KORKIS	JOHN KORKIS	7200	EL CAJON BLVD 	A			SAN DIEGO	CA	92115-1829	Y	454	SALE GROCERY AND PRODUCE	N	4/13/2020	4/30/2021	SOLE	1	9	COLLEGE AREA	21	COLLEGE AREA
N	JOHN NHAM INSURANCE AGENCY INC	JOHN NHAM INSURANCE AGENCY	6512	EL CAJON BLVD 	B			SAN DIEGO	CA	92115-2703	N	524	AUTO, HOME, LIFE, BUSINESS, WORKERS COMP INSURANCE PROVIDER/SERVICES(FARMERS INSURANCE)	N	12/1/2015	11/30/2020	CORP	2	9	COLLEGE AREA	21	COLLEGE AREA
N	JOLANTA JOWORCZYK & ANETA GAWORCZYK-HANKUS	JOLANTA HAIR DESIGN	6150	EL CAJON BLVD 	F			SAN DIEGO	CA	92115-3900	N	812112	COSMOTOLOGY	N	5/15/2014	5/31/2021	PARTNR	2	9	COLLEGE AREA	21	COLLEGE AREA
Y	JOSHUA GOBER LLC	JOSHUA GOBER LLC	5090	COLLEGE AVE 	6			SAN DIEGO	CA	92115-2400	Y	54199	PROVIDE AUDIO SERVICES AND TECHNICAL SET UP/ TROUBLE SHOOTING	N	2/14/2020	2/28/2021	LLC	0	9	COLLEGE AREA                       	21	COLLEGE AREA
N	JULIE SOPHAN	JULIE SOPHAN	4657	COLLEGE AVE 				SAN DIEGO	CA	92115-3904	N	812116	NAIL SALON BOOTH RENTAL	N	3/4/2019	3/31/2021	SOLE	0	9	COLLEGE AREA	21	COLLEGE AREA
N	WADE SNOW & RYAN PEARL	JUMP START FITNESS	6663	EL CAJON BLVD 	Q			SAN DIEGO	CA	92115-2852	N	611621	PERSONAL FITNES TRAINER	N	8/1/2014	7/31/2021	PARTNR	0	9	MID-CITY:EASTERN AREA	21	COLLEGE AREA
N	STAN W BIALECKI	JUST A TRIM AKA MAT'S BARBER SHOP	5645	EL CAJON BLVD 				SAN DIEGO	CA	92115-3736	N	812111	BARBER SHOP, MENS HAIR CUTS	N	12/1/2006	11/30/2020	SOLE	0	9	MID-CITY:EASTERN AREA	21	COLLEGE AREA
N	JUSTIN KIRBY	JUSTIN KIRBY	4869	70TH ST 	8			SAN DIEGO	CA	92115-3061	N	454	SALES	N	4/20/2020	4/30/2021	SOLE	0	9	MID-CITY:EASTERN AREA	21	COLLEGE AREA
N	JW CLEANING SOLUTIONS LLC	JW CLEANING SOLUTIONS LLC	6769	EL CAJON BLVD 	24			SAN DIEGO	CA	92115-1601	Y	56172	JANITORIAL SERVICES	N	3/23/2017	3/31/2021	LLC	0	9	MID-CITY:EASTERN AREA	21	COLLEGE AREA
Y	KAKIMON LLC	KAKIMON LLC	6959	EL CAJON BLVD 				SAN DIEGO	CA	92115	N	531312	NONRESIDENTIAL PROPERTY MANAGERS 	N	1/1/2009	12/31/2020	LLC	0	9	MID-CITY:EASTERN AREA	21	COLLEGE AREA
N	CESAR F CARIG	KALEPONI INK	6957	EL CAJON BLVD 	109			SAN DIEGO	CA	92115-1755	N	812196	TATTOO PARLOR	N	10/3/2015	10/31/2021	SOLE	0	9	MID-CITY:EASTERN AREA	21	COLLEGE AREA
N	KAPPA DELTA-BETA RHO CHAPTER	KAPPA DELTA-BETA RHO CHAPTER	5066	COLLEGE AVE 				SAN DIEGO	CA	92115-2437	N	33699	OTHER TRANSPORTATION EQUIPMENT MFG	N	9/1/2012	8/31/2021	CORP	0	9	COLLEGE AREA	21	COLLEGE AREA
Y	KAYA SALON INC	KAYA SALON	5716	EL CAJON BLVD 				SAN DIEGO	CA	92115-3737	N	812112	HAIR SALON.	N	6/1/2010	5/31/2021	CORP	0	9	COLLEGE AREA	21	COLLEGE AREA
N	KBBQ INC	KBBQ	6353	EL CAJON BLVD 	122			SAN DIEGO	CA	92115-2655	N	722211	RESTAUANT, GRILL	N	8/1/2018	7/31/2021	SCORP	8	9	MID-CITY:EASTERN AREA	21	COLLEGE AREA
N	CONVENIENT CORNERS INC	KEG N BOTTLE #2	6060	EL CAJON BLVD 				SAN DIEGO	CA	92115-3813	N	44531	BEER, WINE & LIQUOR STORES	N	12/13/2001	12/31/2020	CORP	5	9	COLLEGE AREA	21	COLLEGE AREA
N	KELLY A SLUDER	KELLY SLUDER	7151	EL CAJON BLVD 	L			SAN DIEGO	CA	92115-1819	N	812115	HAIRSTYLIST	N	6/8/2015	6/30/2021	SOLE	0	9	MID-CITY:EASTERN AREA	21	COLLEGE AREA
Y	KEOMANY MANOS	KEOMANY MANOS	4657	COLLEGE AVE 				SAN DIEGO	CA	92115-3904	N	812116	RENT A BOOTH- NAIL SALON.	N	2/4/2009	2/28/2021	SOLE	0	9	COLLEGE AREA	21	COLLEGE AREA
N	KEVIN TANG	KL HAIR & NAILS SALON	6362	EL CAJON BLVD 				SAN DIEGO	CA	92115-2643	N	81211	HAIR  NAILS  WAX AND SKIN CARES	N	10/6/2015	10/31/2021	SOLE	2	9	COLLEGE AREA	21	COLLEGE AREA
N	KRISTI L BAKER	KRISTI LUVS CONNECTION	6244	EL CAJON BLVD 	24			SAN DIEGO	CA	92115-3918	N	4223	CLOTHING BOUTIQUE	N	7/1/2020	6/30/2021	SOLE	1	9	COLLEGE AREA	21	COLLEGE AREA
N	KWEST FLOORING SERVICES INC	KWEST FLOORING SERVICES INC	7088	EL CAJON BLVD 				SAN DIEGO	CA	92115-1824	N	23552	FLOORING CONTRACTOR	N	1/19/2016	11/30/2020	CORP	0	9	COLLEGE AREA	21	COLLEGE AREA
N	CAMPUS PLAZA L & L INC	L & L HAWAIIAN BARBECUE	6083	EL CAJON BLVD 	B1			SAN DIEGO	CA	92115-3844	N	72211	SELLING FOOD & BEVERAGES	N	7/21/2003	7/31/2021	CORP	10	9	MID-CITY:EASTERN AREA	21	COLLEGE AREA
N	LILI ZHANG	L MASSAGE	6784	EL CAJON BLVD 	G			SAN DIEGO	CA	92115-1602	N	812198	MASSAGE THERAPY	N	11/1/2018	10/31/2021	SOLE	1	9	COLLEGE AREA	21	COLLEGE AREA
N	PACK RICK C	LA MESA MUFFLER & BRAKE	6517	EL CAJON BLVD 	A			SAN DIEGO	CA	92115-2702	N	81119	OTHER AUTOMOTIVE R&M	N	1/6/1986	1/31/2021	SOLE	0	9	MID-CITY:EASTERN AREA	21	COLLEGE AREA
N	RN MOTORS INC	LA MESA PRE OWNED	6992	EL CAJON BLVD 				SAN DIEGO	CA	92115-1738	N	4412	USED CAR LOT	N	8/9/2019	8/31/2021	SCORP	1	9	COLLEGE AREA	21	COLLEGE AREA
Y	RN MOTORS INC	LA MESA PRE-OWNED	6992	EL CAJON BLVD 				SAN DIEGO	CA	92115-1738	N	44112	USED CAR DEALER	N	8/14/2012	8/31/2021	CORP	0	9	COLLEGE AREA	21	COLLEGE AREA
N	LA MESA SMOKE SHOP INC	LA MESA SMOKE SHOP	7200	EL CAJON BLVD 	A			SAN DIEGO	CA	92115-1829	N	453991	SELLING TOBACCO PRODUCTS	N	5/1/2014	8/31/2021	CORP	2	9	COLLEGE AREA	21	COLLEGE AREA
N	NGUYEN KIM T	LA MESA TV SUPPLY COMPANY	7026	EL CAJON BLVD 				SAN DIEGO	CA	92115	N	443	ELECTRONICS & APPLIANCE STORES	N	11/1/2000	10/31/2021	SOLE	0	9	COLLEGE AREA	21	COLLEGE AREA
N	RYAN N LAFFERTY	LAFFERTYMEDIA	6258	MONTEZUMA RD 				SAN DIEGO	CA	92115-1439	Y	54192	PHOTOGRAPHY	N	12/31/2017	12/31/2020	SOLE	1	9	COLLEGE AREA	21	COLLEGE AREA
N	LAM TRAN PHAM	LAM TRAN PHAM	6165	EL CAJON BLVD 	J			SAN DIEGO	CA	92115-3927	N	812116	INDEPENDANT CONTRACTOR - BOOTH RENT	N	4/21/2015	4/30/2021	SOLE	0	9	MID-CITY:EASTERN AREA	21	COLLEGE AREA
Y	LAMOON THAI RESTAURANT LLC	LAMOON THAI EATERY	6366	EL CAJON BLVD 				SAN DIEGO	CA	92115-2643	N	72	ACCOMMODATION & FOOD SERVICES	N	7/1/2019	6/30/2021	LLC	0	9	COLLEGE AREA	21	COLLEGE AREA
N	LANECERT EDUCATION GROUP LLC	LANECERT EDUCATION GROUP	6360	EL CAJON BLVD 	101			SAN DIEGO	CA	92115-2643	N	61171	OCCUPATIONAL SKILLS TRAINING FOR IT NETWORK ENGINEERING, CONSULTING, AND COMPUTER LAB RENTAL.	N	9/1/2020	8/31/2021	LLC	1	9	COLLEGE AREA                       	21	COLLEGE AREA
N	EMMA M FLINT	LASH & SKIN BY EMMA	6145	EL CAJON BLVD 	F			SAN DIEGO	CA	92115-3923	N	81211	EYELASH AND SKINCARE	N	6/20/2020	6/30/2021	SOLE	0	9	MID-CITY:EASTERN AREA	21	COLLEGE AREA
Y	LAVISH TATTOO	LAVISH TATTOO	5733	EL CAJON BLVD 				SAN DIEGO	CA	92115-3738	N	8129	TATTOO SERVICES	N	1/1/2009	12/31/2020	SOLE	0	9	MID-CITY:EASTERN AREA	21	COLLEGE AREA
N	TODD GORREMANS	LAVISH TATTOO	5735	EL CAJON BLVD 				SAN DIEGO	CA	92115-3738	N	812196	BODY ART/TATTOO	N	4/2/2019	4/30/2021	SOLE	0	9	MID-CITY:EASTERN AREA	21	COLLEGE AREA
N	TODD GORREMANS	LAVISH TATTOO	6168	EL CAJON BLVD 				SAN DIEGO	CA	92115-3914	N	812196	TATTOO PARLORS.	N	1/1/2018	12/31/2020	SOLE	0	9	COLLEGE AREA	21	COLLEGE AREA
N	JONATHAN DAVID FRANK	LAW OFFICES OF JONATHAN DAVID FRANK	5875	EL CAJON BLVD 	103			SAN DIEGO	CA	92115-3769	N	54111	OFFICES OF LAWYERS	N	1/1/2012	12/31/2020	SOLE	0	9	MID-CITY:EASTERN AREA	21	COLLEGE AREA
Y	LAZ PARKING CALIFORNIA LLC	LAZ PARKING CALIFORNIA LLC	5840	LINDO PASEO  				SAN DIEGO	CA	92115	N	81293	PARKING MANAGEMENT SERVICE	N	1/1/2017	12/31/2020	LLC	2	9	COLLEGE AREA	21	COLLEGE AREA
Y	LAZ PARKING CALIFORNIA LLC	LAZ PARKING CALIFORNIA LLC	6801	EL CAJON BLVD 				SAN DIEGO	CA	92115-1725	N	81293	PARKING MANAGEMENT SERVICE	N	4/23/2018	4/30/2021	LLC	1	9	MID-CITY:EASTERN AREA	21	COLLEGE AREA
Y	LAZ PARKING CALIFORNIA LLC	LAZ PARKING CALIFORNIA LLC	5500	CAMPANILE DR 				SAN DIEGO	CA	92115-1701	N	81293	PARKING MANAGEMENT SERVICE	N	1/1/2017	12/31/2020	LLC	10	9	COLLEGE AREA	21	COLLEGE AREA
Y	ELIZABETH LOU	LEARNMORE	5532	EL CAJON BLVD 	5			SAN DIEGO	CA	92115-3642	N	8135	VOCATIONAL TRAINING SCHOOL. JOB AND SKILLS TRAINING SCHOOL	N	1/1/2018	12/31/2020	NO/PRF	2	9	COLLEGE AREA	21	COLLEGE AREA
Y	LEGACY SMOKE SHOP INC	LEGACY SMOKE SHOP	5807	EL CAJON BLVD 				SAN DIEGO	CA	92115-3741	N	44512	CONVENIENCE STORE.	N	4/1/2020	3/31/2021	CORP	1	9	MID-CITY:EASTERN AREA	21	COLLEGE AREA
Y	MARGARET MURNAN	LESSONS IN MOTION	6244	EL CAJON BLVD 	3			SAN DIEGO	CA	92115-3918	N	611699	611699  MISCELLANEOUS SCHOOLS AND INSTRUCTION	N	10/11/2015	10/31/2021	SOLE	0	9	COLLEGE AREA	21	COLLEGE AREA
Y	LEVI CEITLIN & CHAYA S SHAGALOV	LEVI CEITLIN & CHAYA S SHAGALOV	6595	MONTEZUMA RD 	7			SAN DIEGO	CA	92115-2823	Y	4853	TAXI & LIMOUSINE SERVICE/ DRIVE FOR AMAZON	N	1/1/2016	12/31/2020	H-W	0	9	COLLEGE AREA	21	COLLEGE AREA
Y	DANIEL TESEMA	LIDETA CAB	6470	EL CAJON BLVD 	115			SAN DIEGO	CA	92115-2660	Y	48531	TAXI DRIVER	N	3/1/2011	2/28/2021	SOLE	0	9	COLLEGE AREA	21	COLLEGE AREA
N	LIGHTNING FAST ELECTRIC INC	LIGHTNING FAST ELECTRIC INC	6161	EL CAJON BLVD 	B417			SAN DIEGO	CA	92115-3922	N	23531	ELECTRICAL SERVICE OF HOMES	N	1/1/2006	12/31/2020	CORP	0	9	MID-CITY:EASTERN AREA	21	COLLEGE AREA
N	LIHONG ZHANG	LIHONG ZHANG	4535	COLLEGE AVE 				SAN DIEGO	CA	92115-4010	N	812198	MASSAGE THERAPIST	N	2/22/2017	2/28/2021	SOLE	0	9	MID-CITY:EASTERN AREA	21	COLLEGE AREA
N	ARMANDO & SON UPHOLSTERY, INC	LINDY'S AUTO UPHOLSTERY	7267	EL CAJON BLVD 				SAN DIEGO	CA	92115-1835	N	81119	OTHER AUTOMOTIVE R&M	N	10/8/1985	9/30/2021	CORP	3	9	MID-CITY:EASTERN AREA	21	COLLEGE AREA
Y	AMF FOODS INC	LITTLE CAESARS PIZZA	6074	EL CAJON BLVD 	B			SAN DIEGO	CA	92115-3846	N	722211	PIZZA CARRYOUT	N	11/18/2019	11/30/2020	CORP	9	9	COLLEGE AREA	21	COLLEGE AREA
N	LJ FOOTCARE LLC	LJ FOOTCARE LLC	4622	COLLEGE AVE 	B			SAN DIEGO	CA	92115-3903	N	812198	BODY MASSAGE	N	3/4/2019	3/31/2021	LLC	0	9	COLLEGE AREA	21	COLLEGE AREA
N	LJ FOOTCARE LLC	LJ FOOTCARE LLC	4903	70TH ST 				SAN DIEGO	CA	92115-1802	N	812194	PERFORMING FOOT MASSAGES	N	4/1/2014	3/31/2021	LLC	0	9	MID-CITY:EASTERN AREA	21	COLLEGE AREA
N	LJ FOOTCARE LLC	LJ FOOTCARE SPA	7151	EL CAJON BLVD 	K			SAN DIEGO	CA	92115-1819	N	812198	FULL BODY MASSAGE	N	11/5/2018	11/30/2020	LLC	2	9	MID-CITY:EASTERN AREA	21	COLLEGE AREA
Y	BLVD DIGITAL INVESTMENTS LLC	LOCAL VITAL	6866	EL CAJON BLVD 				SAN DIEGO	CA	92115-1724	N	5418	MARKETING / ADVERTISING	N	9/3/2014	9/30/2021	LLC	0	9	COLLEGE AREA	21	COLLEGE AREA
N	LOLITA'S RESTAURANTS INC	LOLITA'S MEXICAN FOOD	5120	COLLEGE AVE 	125			SAN DIEGO	CA	92115-2445	N	722211	MEXICAN FAST-CASUAL LIMITED SERVICE RESTAURANT	N	8/30/2019	8/31/2021	SCORP	34	9	COLLEGE AREA	21	COLLEGE AREA
N	OVED VAZQUEZ OJEDA & ALVARO VAZQUEZ VALDEZ	LOS REYES TIRE SHOP #6	7267	EL CAJON BLVD 	B			SAN DIEGO	CA	92115-1835	N	44132	SELL USED AND NEW TIRES	N	4/6/2017	4/30/2021	PARTNR	2	9	MID-CITY:EASTERN AREA	21	COLLEGE AREA
Y	LUCILLE A KNOWLES	LUCILLE A KNOWLES	6025	ADAMS AVE 	6025			SAN DIEGO	CA	92115-3806	Y	54143	GRAPHIC ART AND DESIGN SERVICE	N	1/1/2019	12/31/2020	SOLE	0	9	COLLEGE AREA	21	COLLEGE AREA
N	STANLEY PENN	LUCKY LADY CARD ROOM	5526	EL CAJON BLVD 				SAN DIEGO	CA	92115-3623	N	71399	ALL OTHER AMUSEMENT & RECREATION INDUSTRIES	N	6/13/1983	9/30/2021	SOLE	76	9	COLLEGE AREA	21	COLLEGE AREA
N	LUIS E CALIXTO DDS INC	LUIS E CALIXTO DDS INC	6368	EL CAJON BLVD 				SAN DIEGO	CA	92115-2643	N	62121	OFFICES OF DENTISTS	N	8/1/2001	7/31/2021	CORP	7	9	COLLEGE AREA	21	COLLEGE AREA
N	LUNA VIDEO GAMES INC	LUNA VIDEO GAMES INC	6954	EL CAJON BLVD 				SAN DIEGO	CA	92115-1738	N	45112	VIDEO GAME SALES.	N	11/7/2007	6/30/2021	SCORP	2	9	COLLEGE AREA	21	COLLEGE AREA
N	LY LE HOA	LY LE HOA	6165	EL CAJON BLVD 	J			SAN DIEGO	CA	92115-3927	N	812116	SELF CONTRACTOR MANICURIST	N	7/1/2009	6/30/2021	SOLE	0	9	MID-CITY:EASTERN AREA	21	COLLEGE AREA
N	LYNN L OWENS CHIROPRACTIC PROFESSIONAL CORP	LYNN L OWENS CHIROPRACTIC PROFESSIONAL CORP	4529	COLLEGE AVE 				SAN DIEGO	CA	92115-4010	N	62131	OFFICES OF CHIROPRACTORS	N	12/6/1994	12/31/2020	SOLE	2	9	MID-CITY:EASTERN AREA	21	COLLEGE AREA
N	M & M AUTO WAREHOUSE	M & M AUTO WAREHOUSE	4982	70TH ST 				SAN DIEGO	CA	92115-1803	N	44112	RETAILING CARS	N	12/1/2004	11/30/2020	SCORP	0	9	COLLEGE AREA	21	COLLEGE AREA
N	REGINALD E WILLIAMS JR & SENA D WILLIAMS	M L LEGACY CENTER	7220	EL CAJON BLVD 				SAN DIEGO	CA	92115-1829	N	56199	VENUE WHERE PEOPLE CAN RENT OUT FOR PRIVATE EVENTS, MARKETPLACE THAT HOUSES OTHER SERVICES	N	10/1/2018	9/30/2021	H-W	0	9	COLLEGE AREA	21	COLLEGE AREA
N	MIKE DAWOOD	M&T AUTO SALES	7176	EL CAJON BLVD 				SAN DIEGO	CA	92115-1827	N	8111	SMOG TEST & REPAIR STATION	N	9/15/2017	9/30/2021	SOLE	0	9	COLLEGE AREA	21	COLLEGE AREA
Y	MAHAMOUD NAJJI FARAH	MAHAMOUD NAJJI FARAH	6161	EL CAJON BLVD 	134			SAN DIEGO	CA	92115-3922	Y	48531	DRIVING A TAXI IN THE CITY OF SAN DIEGO. PROVIDING TRANSPORTATION TO THE PUBLIC.	N	7/14/2010	7/31/2012	SOLE	0	9	MID-CITY:EASTERN AREA	21	COLLEGE AREA
N	MAJESTY IN MOTION DANCE COMPANY INC	MAJESTY IN MOTION DANCE COMPANY INC	6380	EL CAJON BLVD 				SAN DIEGO	CA	92115-2643	N	611625	DANCE COMPANY DANCE STUDIO	N	1/17/2017	1/31/2021	SCORP	2	9	COLLEGE AREA	21	COLLEGE AREA
Y	MALIK MUHAMMAD	MALIK MUHAMMAD	6304	EL CAJON BLVD 				SAN DIEGO	CA	92115-2641	N	62134	THERAPY	N	4/1/2019	3/31/2021	SOLE	0	9	COLLEGE AREA	21	COLLEGE AREA
N	JOHN C HANSEN, JEROME D KOLODGE, JAVIER BARAJAS	MANGEMENT SPECIALTIES	6512	EL CAJON BLVD 	C			SAN DIEGO	CA	92115-2703	N	541615	CONSTRUCTION CONSULTING.	N	9/1/2010	8/31/2021	PARTNR	20	9	COLLEGE AREA	21	COLLEGE AREA
N	MARICELA MURILLO DDS INC	MARICELA MURILLO DDS INC	4990	70TH ST 				SAN DIEGO	CA	92115-1803	N	62121	DENTAL OFFICE 	N	4/2/2012	4/30/2021	CORP	6	9	COLLEGE AREA	21	COLLEGE AREA
N	WING MARIE	MARIE WING	6911	EL CAJON BLVD 				SAN DIEGO	CA	92115-1754	N	812115	BEAUTY SALONS -BOOTH RENTAL ONLY.	N	3/5/1986	2/28/2021	SOLE	0	9	MID-CITY:EASTERN AREA	21	COLLEGE AREA
Y	MARIEME S MBAYE	MARIEME S MBAYE	5521	EL CAJON BLVD 				SAN DIEGO	CA	92115-3624	N	812112	HAIR SERVICES	N	7/1/2016	6/30/2021	SOLE	0	9	MID-CITY:EASTERN AREA	21	COLLEGE AREA
Y	RANJIT SINGH	MASALA COTTAGE	6729	EL CAJON BLVD 				SAN DIEGO	CA	92115-1621	N	722211	SELLING INDIAN FOOD TAKE OUT DINER (TO GO RESTAURANT)	N	8/7/2019	8/31/2021	SOLE	1	9	MID-CITY:EASTERN AREA	21	COLLEGE AREA
Y	RANJIT SINGH	MASALA COTTAGE	6729	EL CAJON BLVD 				SAN DIEGO	CA	92115-1621	Y	72232	FAST FOOD INDIAN RESTAURANT	N	4/9/2020	4/30/2021	SOLE	1	9	MID-CITY:EASTERN AREA	21	COLLEGE AREA
N	JUNHONG LIU & MINGLIANG DENG	MASSAGE A SPA	4535	COLLEGE AVE 				SAN DIEGO	CA	92115-4010	N	812193	MASSAGE THERAPY.	N	5/1/2016	4/30/2021	PARTNR	0	9	MID-CITY:EASTERN AREA	21	COLLEGE AREA
N	IRAJ ABDY	MAX AUTO SALES	5811	EL CAJON BLVD 				SAN DIEGO	CA	92115-3741	N	44112	USED CAR SALES	N	1/10/2019	1/31/2021	SOLE	0	9	MID-CITY:EASTERN AREA	21	COLLEGE AREA
N	SUTHERLAND ROBERT R	MCDONALDS	5824	MONTEZUMA RD 				SAN DIEGO	CA	92115	N	7221	FULL-SERVICE RESTAURANTS	N	4/3/1981	3/31/2021	SOLE	22	9	COLLEGE AREA	21	COLLEGE AREA
Y	MEGA64 INC	MEGA64 INC	6875	EL CAJON BLVD 	B			SAN DIEGO	CA	92115-1725	N	54192	VIDEO PRODUCTION (FILMING AND EDITING) FULFILLING ONLINE ORDERS FOR VIDEO-RELATED MERCHANDISE	N	7/1/2011	6/30/2021	CORP	0	9	MID-CITY:EASTERN AREA	21	COLLEGE AREA
Y	MANUEL A MEJIA	MEJIA'S TAX GROUP	4901	70TH ST 				SAN DIEGO	CA	92115-1802	N	541213	TAX PREPARATION	N	1/1/2019	12/31/2020	SOLE	0	9	MID-CITY:EASTERN AREA	21	COLLEGE AREA
N	FELSIMINA VANTA & KANDISE D THOMPSON	MELANIN MADE	6771	EL CAJON BLVD 				SAN DIEGO	CA	92115-1621	N	453	SELLING HANDCRAFTED ITEMS FROM LOCAL DESIGNERS	N	9/25/2020	9/30/2021	PARTNR	0	9	MID-CITY:EASTERN AREA	21	COLLEGE AREA
N	BARONGAN MARK G	MGB & ASSOCIATES	6161	EL CAJON BLVD 	B		PMB 406	SAN DIEGO	CA	92115-3987	N	621399	OFFICES OF ALL OTH MISC HEALTH PRACTITIONERS	N	6/4/1999	6/30/2021	SOLE	0	9	MID-CITY:EASTERN AREA	21	COLLEGE AREA
N	MILO'S PIZZA & SUBS INC	MILO'S PIZZA & SUBS INC	6686	EL CAJON BLVD 	D			SAN DIEGO	CA	92115	N	7221	FULL-SERVICE RESTAURANTS	N	9/1/1996	8/31/2021	CORP	0	9	COLLEGE AREA                       	21	COLLEGE AREA
N	MIN LIU	MIN LIU	4535	COLLEGE AVE 				SAN DIEGO	CA	92115-4010	N	812198	MASSAGE THERAPIST, FOOT AND BODY MASSAGE	N	3/1/2017	2/28/2021	SOLE	0	9	MID-CITY:EASTERN AREA	21	COLLEGE AREA
N	AHMED MALIINOMAR	MIRAGE HOOKAH LOUNGE OR  BLUE NILE HOOKAH  LOUNGE	7200	EL CAJON BLVD 	B			SAN DIEGO	CA	92115-1829	N	453991	SELLING HOOKAH & BEVERGES, TOBACCO PRODUCTS.	N	6/1/2015	3/31/2021	SOLE	0	9	COLLEGE AREA	21	COLLEGE AREA
N	MIRCH MASALA 2 GO LLC	MIRCH MASALA 2 GO	6165	EL CAJON BLVD 	1E			SAN DIEGO	CA	92115-3927	N	722	INDIAN FOOD, SERVED IN FAST PAST	N	1/1/2016	12/31/2020	LLC	0	9	MID-CITY:EASTERN AREA	21	COLLEGE AREA
Y	WENONAH & JERRAME WILCOX	MODERN DAY ACUPUNCTURE	7151	EL CAJON BLVD 	L			SAN DIEGO	CA	92115-1819	N	6213	ACUPUNCTURE SERVICES.	N	1/19/2018	1/31/2021	H-W	0	9	MID-CITY:EASTERN AREA	21	COLLEGE AREA
Y	MOMENTA DESIGN G INC	MOMENTA DESIGN G INC	6161	EL CAJON BLVD 	B-405			SAN DIEGO	CA	92115-3922	N	54133	CIVIL ENGINEERING	N	3/26/2018	3/31/2021	CORP	0	9	MID-CITY:EASTERN AREA	21	COLLEGE AREA
N	MONEYTREE INC	MONEYTREE CHECK CASHING	6979	EL CAJON BLVD 				SAN DIEGO	CA	92115-1739	N	52229	OTHER NONDEPOSITORY CREDIT INTERMEDIATION	N	6/9/1998	6/30/2021	CORP	12	9	MID-CITY:EASTERN AREA	21	COLLEGE AREA
Y	MOUNTAIN PERSPECTIVES LLC	MOUNTAIN PERSPECTIVES GUIDING COMPANY	4640	COLLEGE AVE 				SAN DIEGO	CA	92115-3903	N	8129	ROCK CLIMBING SERVICES	N	8/10/2018	8/31/2021	LLC	0	9	COLLEGE AREA	21	COLLEGE AREA
N	BERNARD & LUANN GALLANT	MUSIC RENTAL COMPANY	5960	EL CAJON BLVD 				SAN DIEGO	CA	92115-3828	N	45122	PRERECORDED TAPE, CD & RECORD STORES	N	9/1/1978	7/31/2021	H-W	4	9	COLLEGE AREA	21	COLLEGE AREA
N	NAM HO 	MY THANH SEWING MACHINES REPAIR & RENTAL	5639	EL CAJON BLVD 				SAN DIEGO	CA	92115-3736	N	811	REPAIR SEWING MACHINES AND RENTAL 	N	9/15/2002	9/30/2021	SOLE	0	9	MID-CITY:EASTERN AREA	21	COLLEGE AREA
N	NAIL EXPRESSIONS, INC.	NAIL EXPRESSIONS INC	6686	EL CAJON BLVD 	C			SAN DIEGO	CA	92115-2800	N	812112	BEAUTY SALONS	N	2/15/2001	2/28/2021	SCORP	3	9	COLLEGE AREA	21	COLLEGE AREA
N	HOANG LAI	NAIL'S PARADISE AND SPA	7032	EL CAJON BLVD 				SAN DIEGO	CA	92115-1824	N	812113	NAIL SERVICES	N	2/27/2017	2/28/2021	SOLE	3	9	COLLEGE AREA	21	COLLEGE AREA
Y	SHAKIRA WILLIAMSON	NAILS BY KI NICOLE	4657	COLLEGE AVE 				SAN DIEGO	CA	92115-3904	N	812116	NAILS	N	10/14/2019	10/31/2021	SOLE	0	9	COLLEGE AREA	21	COLLEGE AREA
N	LO NARY A	NARY LO	6775	EL CAJON BLVD 				SAN DIEGO	CA	92115-1621	N	812115	BEAUTY SALONS - BOOTH RENTAL	N	8/30/1993	8/31/2021	SOLE	0	9	MID-CITY:EASTERN AREA	21	COLLEGE AREA
N	YAKELIN FIGUEROA ZAMORA	NATIONAL FINANCE	5486	EL CAJON BLVD 				SAN DIEGO	CA	92115-3622	N	42111	WHOLESALE USED CARS	N	6/10/2013	6/30/2021	SOLE	0	9	COLLEGE AREA	21	COLLEGE AREA
Y	NGA HUYNH	NGA HUYNH 	5843	EL CAJON BLVD 	6			SAN DIEGO	CA	92115-3773	Y	541219	OTHER ACCOUNTING SERVICES	N	11/1/2017	10/31/2021	SOLE	0	9	MID-CITY:EASTERN AREA	21	COLLEGE AREA
Y	ABEBE M YIMAM	NIGHT RIDER CAB/MAKEBA CAB	6470	EL CAJON BLVD 	213			SAN DIEGO	CA	92115-2663	Y	48531	TAXI DRIVER	N	5/23/2008	5/31/2021	SOLE	0	9	COLLEGE AREA	21	COLLEGE AREA
N	NILE SISTERS DEVELOPMENT INITIATIVE	NILE SISTERS DEVELOPMENT INITIATIVE	5532	EL CAJON BLVD 	5			SAN DIEGO	CA	92115-3642	N	8134	HELP REFUGEE AND IMMIGRANT WOMEN AND THEIR FAMILIES ADJUST TO LIFE IN SAN DIEGO PROVIDE MATERIAL ASSISTANCE AND ORIENTATION SERVICES TO NEW IMMIGRANT WOMEN 	N	5/1/2002	4/30/2021	NO/PRF	0	9	COLLEGE AREA	21	COLLEGE AREA
Y	ERNEST U JOHNSON	OLD SCHOOL BOXING CENTER	5975	EL CAJON BLVD 				SAN DIEGO	CA	92115-3827	N	611699	MARITAL ARTS STUDIO	N	5/1/2008	4/30/2021	SOLE	0	9	MID-CITY:EASTERN AREA	21	COLLEGE AREA
N	OMAR CELESTINO	OMAR CELESTINO 	6353	EL CAJON BLVD 	128			SAN DIEGO	CA	92115-2655	Y	812111	BARBER SHOPS	N	8/1/2016	7/31/2021	SOLE	0	9	MID-CITY:EASTERN AREA	21	COLLEGE AREA
N	ONEMAIN FINANCIAL GROUP LLC	ONEMAIN FINANCIAL GROUP LLC	6165	EL CAJON BLVD 	L			SAN DIEGO	CA	92115-3927	N	522291	CONSUMER LENDING	N	11/4/2018	11/30/2020	LLC	3	9	MID-CITY:EASTERN AREA	21	COLLEGE AREA
Y	WILLIAM T HOUSTON	ORCA DATACOM	6161	EL CAJON BLVD 	B435			SAN DIEGO	CA	92115-3922	Y	5415	AUDIO, VIDEO & COMPUTER RELATED SERVICES, MISC COMPUTER RELATED SERVICES	Y	10/1/2020	9/30/2021	SOLE	0	9	MID-CITY:EASTERN AREA	21	COLLEGE AREA
N	OROFACIAL THERAPEUTICS LP	OROFACIAL THERAPEUTICS LP	6824	EL CAJON BLVD 				SAN DIEGO	CA	92115-1724	N	42145	DISTRIBUTION AND SELL DIRECT TO DENTIST AN ORAL APPLIANCE.	N	1/1/2017	12/31/2020	LP	3	9	COLLEGE AREA	21	COLLEGE AREA
Y	JD PARK INC	OSHI S KITCHEN	5838	MONTEZUMA RD 				SAN DIEGO	CA	92115-2340	N	722	RESTAURANT FOOD SERVICES.	N	10/1/2013	9/30/2021	CORP	1	9	COLLEGE AREA	21	COLLEGE AREA
N	PROGRESS CONST CO INC	P C WATER CO	6161	EL CAJON BLVD 	528			SAN DIEGO	CA	92115-3922	N	56111	WATER BILLING CO FOR PARENT CO PROGRESS CONST CO INC/ PROGRESS MANAGEMENT CO	N	10/25/2004	10/31/2021	CORP	2	9	MID-CITY:EASTERN AREA	21	COLLEGE AREA
N	SERRANO PABLO	PABLO'S SHOE REPAIR AND SHINE SERVICE	5120	MONTEZUMA PL 				SAN DIEGO	CA	92115-1337	N	81143	FOOTWEAR & LEATHER GOODS REPAIR	N	6/1/1994	1/31/2021	SOLE	0	9	COLLEGE AREA	21	COLLEGE AREA
N	PACIFIC BELL TELEPHONE COMPANY	PACIFIC BELL	4569	COLLEGE AVE 				SAN DIEGO	CA	92115-4011	N	513	BROADCASTING & TELECOMMUNICATIONS	N	7/1/1999	6/30/2021	CORP	2	9	MID-CITY:EASTERN AREA	21	COLLEGE AREA
N	QUANTRELL DEBRA	PACIFIC LAWNMOWER WORKS	5831	EL CAJON BLVD 				SAN DIEGO	CA	92115-3741	N	81149	OTHER PERSONAL & HOUSEHOLD GOODS R&M	N	10/1/1979	9/30/2021	PARTNR	5	9	MID-CITY:EASTERN AREA	21	COLLEGE AREA
N	JOHNNY K BUI & THAO N DAO	PAINT NAIL LOUNGE	6921	EL CAJON BLVD 				SAN DIEGO	CA	92115-1754	N	812113	NAIL AND SPA	N	6/1/2018	5/31/2021	PARTNR	4	9	MID-CITY:EASTERN AREA	21	COLLEGE AREA
N	PANDA EXPRESS INC	PANDA EXPRESS  # 885	5500	CAMPANILE DR 	116			SAN DIEGO	CA	92115	N	72211	CHINESE FAST FOOD RESTAURANT. PREPARE, COOK, & SERVE AT BUSINESS LOCATION.	N	8/1/2003	7/31/2021	CORP	12	9	COLLEGE AREA	21	COLLEGE AREA
N	PJ CLEVELAND LLC	PAPA JOHNS PIZZA #1338	6925	EL CAJON BLVD 				SAN DIEGO	CA	92115-1754	N	722211	QUICK SERVICE PIZZA STORE - DELIVERY & TAKEOUT	N	8/1/2015	7/31/2021	LLC	7	9	MID-CITY:EASTERN AREA	21	COLLEGE AREA
Y	MARC R BENNETT	PAPPY'S BARBER SHOP	6528	EL CAJON BLVD 	2			SAN DIEGO	CA	92115-2704	N	812111	BARBER SHOP - HAIRCUTS	N	7/1/2015	6/30/2021	SOLE	4	9	COLLEGE AREA	21	COLLEGE AREA
Y	PAPPY'S BARBER SHOPS INC	PAPPY'S BARBER SHOPS INC	6545	EL CAJON BLVD 				SAN DIEGO	CA	92115-2705	N	812111	BARBER SHOP	Y	8/1/2020	7/31/2021	SCORP	2	9	MID-CITY:EASTERN AREA	21	COLLEGE AREA
N	ALAIN V MORTERA	PARTY HARDY STORE	6663	EL CAJON BLVD 	H			SAN DIEGO	CA	92115-2850	N	453	THE STORE PROVIDES PARTY SUPPLIES	N	1/3/2019	1/31/2021	SOLE	2	9	MID-CITY:EASTERN AREA	21	COLLEGE AREA
Y	NALLELY ROMERO	PATIO POBLANO	7287	EL CAJON BLVD 				SAN DIEGO	CA	92115-1835	N	722211	RESTAURANT, TACO SHOP	N	9/1/2020	8/31/2021	SOLE	2	9	MID-CITY:EASTERN AREA	21	COLLEGE AREA
N	PATRYCJA STEWART DENTAL CORP	PATRYCJA STEWART DENTAL CORP	6244	EL CAJON BLVD 	6			SAN DIEGO	CA	92115-3918	N	62121	DENTAL OFFICE	N	6/3/2019	6/30/2021	CORP	4	9	COLLEGE AREA	21	COLLEGE AREA
Y	MEHMET IMA	PAVON JEWELRY	6345	EL CAJON BLVD 	1305			SAN DIEGO	CA	92115-5571	Y	454112	THIS IS GOING TO BE AN ONLINE STORE WHERE I WILL SELL SOME HANDCRAFTED PRODUCTS SUCH AS NECKLACES AND EARRINGS ETC.	N	1/31/2020	1/31/2021	SOLE	0	9	MID-CITY:EASTERN AREA	21	COLLEGE AREA
Y	PAWS & BOWS PET GROOMING	PAWS AND BOWS	5544	EL CAJON BLVD 				SAN DIEGO	CA	92115-3623	N	81291	PET GROOMING SERVICES	N	2/10/2016	2/28/2021	CORP	0	9	COLLEGE AREA	21	COLLEGE AREA
N	MOEIN HADI	PAYKAN AUTO SALE INC	5486	EL CAJON BLVD 				SAN DIEGO	CA	92115-3622	N	44112	USED CAR DEALERS	N	3/6/1991	3/31/2021	CORP	0	9	COLLEGE AREA	21	COLLEGE AREA
Y	NK5101 INC	PAYLESS SMOKE SHOP	6663	EL CAJON BLVD 	B			SAN DIEGO	CA	92115-2849	N	453991	SMOKE SHOP SELLING TOBACCO PRODUCTS.	N	10/16/2015	10/31/2021	SCORP	2	9	MID-CITY:EASTERN AREA	21	COLLEGE AREA
Y	PAYLESS WIRELESS	PAYLESS WIRELESS	6074	EL CAJON BLVD 	C			SAN DIEGO	CA	92115-3846	N	811212	COMPUTER & OFFICE MACHINE R&M	N	1/1/2019	12/31/2020	CORP	0	9	COLLEGE AREA	21	COLLEGE AREA
N	PEDAL PUSH INC	PEDAL PUSHING BICYCLE SHOP	6969	EL CAJON BLVD 				SAN DIEGO	CA	92115-1739	N	54	PROFESSION,SCIENTIFC & TECHNICAL SERVICES	N	12/10/1982	3/31/2021	CORP	3	9	MID-CITY:EASTERN AREA	21	COLLEGE AREA
N	ZAMORAS INDUSTRIES INC	PENELOPES MEXICAN FOOD	7102	EL CAJON BLVD 				SAN DIEGO	CA	92115-1827	N	722211	FAST FOOD RESTAURANT	N	2/1/2019	1/31/2021	CORP	3	9	COLLEGE AREA	21	COLLEGE AREA
N	PEP BOYS INC THE	PEP BOYS MANNY MOE & JACK THE	6714	EL CAJON BLVD 				SAN DIEGO	CA	92115-1620	N	4539	OTHER MISCELLANEOUS STORE RETAILERS	N	7/1/1974	6/30/2021	CORP	21	9	COLLEGE AREA	21	COLLEGE AREA
N	ALEX MASSIR	PESTO ITALIAN CRAFT KITCHEN	6011	EL CAJON BLVD 	A			SAN DIEGO	CA	92115-3841	N	7222	ITALIAN RESTAURANT	N	4/1/2017	3/31/2021	SOLE	13	9	MID-CITY:EASTERN AREA	21	COLLEGE AREA
Y	PET PROS LLC	PET PROS LLC	4832	70TH ST 				SAN DIEGO	CA	92115-3017	Y	454	RETAIL PET SUPPLY	N	8/1/2020	7/31/2021	LLC	0	9	MID-CITY:EASTERN AREA              	21	COLLEGE AREA
N	AREVALO FANDINO LLC	PET STUFF	6165	EL CAJON BLVD 	C			SAN DIEGO	CA	92115-3927	N	45391	PET STORE	N	10/23/2019	10/31/2021	LLC	4	9	MID-CITY:EASTERN AREA	21	COLLEGE AREA
N	MCCALL PETE	PETE MCCALL C P A	4825	COLLEGE AVE 	107			SAN DIEGO	CA	92115-3925	Y	541213	TAX PREPARATION SERVICES	N	11/20/1989	11/30/2020	SOLE	0	9	COLLEGE AREA	21	COLLEGE AREA
N	PIOTR WROBEL	PETES SERVICES	4805	70TH ST 	4			SAN DIEGO	CA	92115-3055	N	56179	HANDYMAN	N	3/22/2012	3/31/2021	SOLE	0	9	MID-CITY:EASTERN AREA	21	COLLEGE AREA
N	DT PHARMACY CORPORATION	PHILLIP PHARMACY	5507	EL CAJON BLVD 	E			SAN DIEGO	CA	92115-3624	N	44611	RETAIL PHARMACY	N	2/11/2016	2/28/2021	SCORP	1	9	MID-CITY:EASTERN AREA	21	COLLEGE AREA
N	WEBHURST SDSU  LLC	PITA PIT	6353	EL CAJON BLVD 	132			SAN DIEGO	CA	92115-2655	N	7222	SANDWICH SHOPS LIMITED-SERVICE.	N	12/1/2016	11/30/2020	LLC	12	9	MID-CITY:EASTERN AREA	21	COLLEGE AREA
N	PLANNED PARENTHOOD OF THE PACIFIC SOUTHWEST	PLANNED PARENTHOOD OF THE PACIFIC SOUTHWEST	4575	COLLEGE AVE 				SAN DIEGO	CA	92115-4011	N	81341	FAMILY PLANNING SERVICES	N	6/6/1981	6/30/2021	NO/PRF	10	9	MID-CITY:EASTERN AREA	21	COLLEGE AREA
N	PLANT POWER SD ONE LLC	PLANT POWER SD ONE LLC	5842	HARDY AVE 				SAN DIEGO	CA	92115-1317	N	72221	FAST FOOD	N	2/10/2018	2/28/2021	LLC	5	9	COLLEGE AREA	21	COLLEGE AREA
N	PLATT COLLEGE SAN DIEGO INC	PLATT COLLEGE SAN DIEGO	6250	EL CAJON BLVD 				SAN DIEGO	CA	92115-3916	N	611	EDUCATIONAL SERVICES	N	8/1/1992	7/31/2021	CORP	45	9	COLLEGE AREA	21	COLLEGE AREA
Y	POKEDON INC	POKEDON INC	6345	EL CAJON BLVD 	130			SAN DIEGO	CA	92115-5571	N	722211	POKE BOWL FAST FOOD RESTAURANT	N	12/9/2016	12/31/2020	SCORP	8	9	MID-CITY:EASTERN AREA	21	COLLEGE AREA
Y	KFM RESTAURANTS LP	POPEYES CHICKEN & BISCUITS	6095	EL CAJON BLVD 				SAN DIEGO	CA	92115-3815	N	722211	FRIED CHICKEN AND BISCUITS.	N	6/1/2008	5/31/2021	LP	20	9	MID-CITY:EASTERN AREA	21	COLLEGE AREA
N	SAM L YUNG & KWOK Y TIN	PRECISION WATCH/JEWELRY	6165	EL CAJON BLVD 	B			SAN DIEGO	CA	92115-3927	N	45299	ALL OTHER GENERAL MERCHANDISE STORES	N	12/12/1994	7/31/2021	H-W	1	9	MID-CITY:EASTERN AREA	21	COLLEGE AREA
N	KAMRYN JOY HILL	PRETTY GIRLZ SKINCARE LOUNGE	6244	EL CAJON BLVD 	28			SAN DIEGO	CA	92115-3918	N	812115	LICENSED ESTHETICAN PERFORMING BEAUTIFICATION SERVICES AND SKINCARE TREATMENTS.	N	11/1/2019	10/31/2021	SOLE	0	9	COLLEGE AREA	21	COLLEGE AREA
N	PRIETA REAL ESTATE CORP	PRIETA REAL ESTATE CORP	4901	70TH ST 				SAN DIEGO	CA	92115-1802	N	531	REAL ESTATE SALES - LIST AND SELL RESIDENTIAL PROPERTIES. 	N	7/1/2004	12/31/2020	SCORP	0	9	MID-CITY:EASTERN AREA	21	COLLEGE AREA
N	JOHN KORZELIUS MD	PRIME MEDICAL & CHIROPRACTIC GROUP	6244	EL CAJON BLVD 	5			SAN DIEGO	CA	92115-3918	N	6213	MEDICAL AND CHIROPRACTIC CLINIC	N	2/1/2017	1/31/2021	SOLE	3	9	COLLEGE AREA	21	COLLEGE AREA
N	PRINCE & CALY INC	PRINCE HOOKAH CAFE	4644	COLLEGE AVE 				SAN DIEGO	CA	92115-3903	N	7222	HOOKAH CAFE AND RESTAURANT.	N	8/6/2012	8/31/2021	CORP	4	9	COLLEGE AREA	21	COLLEGE AREA
N	KEVIN HA	PRO AUTO BODY	6517	EL CAJON BLVD 				SAN DIEGO	CA	92115-2702	N	81112	AUTO BODY REPAIR PAINT	N	1/31/2013	1/31/2021	SOLE	3		MID-CITY:EASTERN AREA	21	COLLEGE AREA
N	PROPERTY MANAGEMENT EXECUTIVES	PROPERTY MANAGEMENT EXECUTIVES	4901	70TH ST 				SAN DIEGO	CA	92115-1802	N	53131	PROPERTY MANAGEMENT	N	1/30/2006	1/31/2021	SCORP	1	9	MID-CITY:EASTERN AREA	21	COLLEGE AREA
N	KIM MURPHY	PSYCH/KIM MURPHY	6244	EL CAJON BLVD 	3			SAN DIEGO	CA	92115-3918	N	62139	MARRIAGE AND FAMILY THERAPY.	N	7/1/2017	6/30/2021	SOLE	0	9	COLLEGE AREA	21	COLLEGE AREA
N	DIEQING HUANG	Q SHIATSU & MASSAGE	5963	EL CAJON BLVD 				SAN DIEGO	CA	92115-3827	N	812198	BODY MASSAGE	N	9/25/2020	9/30/2021	SOLE	3	9	MID-CITY:EASTERN AREA	21	COLLEGE AREA
N	QIUHUAN ZHANG	QIUHUAN ZHANG	6506	EL CAJON BLVD 	A			SAN DIEGO	CA	92115-2798	N	812198	MASSAGE THERAPIST	N	2/6/2020	2/28/2021	SOLE	0	9	COLLEGE AREA	21	COLLEGE AREA
N	KEVIN NGUYEN	QUALITY APPLIANCES	7105	EL CAJON BLVD 				SAN DIEGO	CA	92115-1828	N	443111	HOME APPLIANCES SALES AND SERVICES	N	1/1/2010	12/31/2020	SOLE	0	9	MID-CITY:EASTERN AREA	21	COLLEGE AREA
N	QUICKSPLINT LLC	QUICK SPLINT LLC	6824	EL CAJON BLVD 				SAN DIEGO	CA	92115-1724	N	541	PROFESSIONAL, SCIENTIFIC & TECHNICAL SERVICES	N	10/1/2011	9/30/2021	LLC	0	9	COLLEGE AREA	21	COLLEGE AREA
N	XIANYI BAI	RAIN SPA AND HYPNOSIS	6784	EL CAJON BLVD 	G			SAN DIEGO	CA	92115-1602	N	621399	HYPNOSIS	Y	9/28/2020	9/30/2021	SOLE	0	9	COLLEGE AREA	21	COLLEGE AREA
N	RALPHS GROCERY CO	RALPHS GROCERY CO #220	6670	MONTEZUMA RD 				SAN DIEGO	CA	92115-2828	N	4451	GROCERY STORES	N	4/2/1997	1/31/2021	CORP	82	9	COLLEGE AREA	21	COLLEGE AREA
N	TONY CORONADO	RANCHWOOD BBQ	7229	EL CAJON BLVD 				SAN DIEGO	CA	92115-1830	N	7222	EATING PLACE	N	1/1/2013	12/31/2020	SOLE	0	9	MID-CITY:EASTERN AREA	21	COLLEGE AREA
N	KORKES MARKET INC	RANDY'S MINI MART	5739	EL CAJON BLVD 				SAN DIEGO	CA	92115-3738	N	44512	MINI MART.	N	3/10/2016	3/31/2021	CORP	0	9	MID-CITY:EASTERN AREA	21	COLLEGE AREA
N	RANY LY	RANY L NAIL DESIGNS	4657	COLLEGE AVE 				SAN DIEGO	CA	92115-3904	N	812116	BEAUTY SALON	N	3/4/2019	3/31/2021	SOLE	0	9	COLLEGE AREA	21	COLLEGE AREA
N	UMI SMOG INC	RAPID AUTO REGISTRATION	6499	EL CAJON BLVD 	A			SAN DIEGO	CA	92115-2646	N	54199	AUTO REGISTRATION	N	1/22/2019	1/31/2021	CORP	0	9	MID-CITY:EASTERN AREA	21	COLLEGE AREA
Y	RAVEN LUXE DESIGNS	RAVEN LUXE DESIGNS	6621	MONTEZUMA RD 	308			SAN DIEGO	CA	92115-2844	N	44821	SHOE STORES	N	3/26/2019	3/31/2021	LP	0	9	COLLEGE AREA	21	COLLEGE AREA
Y	RB SUSHI 2 INC	RB SUSHI 2	5943	EL CAJON BLVD 				SAN DIEGO	CA	92115-3827	N	72211	FULL SERVICE JAPANESE RESTAURANT.	N	5/16/2012	5/31/2021	CORP	30	9	MID-CITY:EASTERN AREA	21	COLLEGE AREA
N	RE-CARE INCORPORATED	RE-CARE INCORPORATED	6401	EL CAJON BLVD 	151445			SAN DIEGO	CA	92115-2646	Y	81356	CONTRACT WITH OTHER BUSINESSES TO REVAMP BUSINESS CONCEPTIONS AND OPERATIONS / PROVIDE CUSTOMERS AND PARTNERS WITH INFORMATION ON BUSINESS AND RESOURCES.	N	10/28/2019	10/31/2021	NO/PRF	0	9	MID-CITY:EASTERN AREA	21	COLLEGE AREA
N	JFCCM LLC	REAL HOPE RECOVERY	6122	EL CAJON BLVD 				SAN DIEGO	CA	92115-3914	N	62142	OUTPATIENT GROUP AND INDIVIDUAL COUNSELING PROGRAM	N	2/1/2019	1/31/2021	LLC	5	9	COLLEGE AREA	21	COLLEGE AREA
N	DANIEL R SMITH	REBEL CUSTOM CABINETS AND TRIM	6595	MONTEZUMA RD 	11			SAN DIEGO	CA	92115-2867	Y	23599	CABINET, TRIM, AND DOOR INSTALLATION	N	9/24/2018	9/30/2021	SOLE	0	9	COLLEGE AREA	21	COLLEGE AREA
Y	COINSTAR LLC	REDBOX AUTOMATED RETAIL LLC	5141	COLLEGE AVE 				SAN DIEGO	CA	92115-2413	N	812951	UNMANNED AUTOMATED KIOSK FOR DVD RENTALS/ SALES USING DEBIT/ CREDIT CARDS ONLY.	N	9/7/2012	9/30/2021	LLC	1	9	COLLEGE AREA	21	COLLEGE AREA
Y	COINSTAR INC	REDBOX AUTOMATED RETAIL LLC	6571	EL CAJON BLVD 				SAN DIEGO	CA	92115-2706	N	812951	UNMANNED AUTOMATED KIOSK FOR DVD RENTALS/  SALES USING DEBIT/ CREDIT CARDS ONLY.	N	5/1/2012	4/30/2021	CORP	0	9	MID-CITY:EASTERN AREA	21	COLLEGE AREA
Y	COINSTAR INC	REDBOX AUTOMATED RETAIL LLC	6670	MONTEZUMA RD 				SAN DIEGO	CA	92115-2828	N	812951	UNMANNED AUTOMATED KIOSK FOR DVD RENTALS/ SALES USING DEBIT/ CREDIT CARDS ONLY	N	5/1/2012	4/30/2021	CORP	0	9	COLLEGE AREA	21	COLLEGE AREA
Y	REDBOX AUTOMATED RETAIL LLC	REDBOX AUTOMATED RETAIL LLC	6155	EL CAJON BLVD 				SAN DIEGO	CA	92115-3915	N	812951	UNMANNED AUTOMATED KIOSK OF DVD RENTALS/ SALES USING DEBIT/ CREDIT CARDS ONLY	N	7/27/2012	7/31/2021	LLC	1	9	MID-CITY:EASTERN AREA	21	COLLEGE AREA
N	REST AND RELAXATION HOOKAH LOUNGE INC	REST AND RELAXATION HOOKAH LOUNGE	6512	EL CAJON BLVD 	G			SAN DIEGO	CA	92115-2703	N	453991	HOOKAH LOUNGE.	N	11/16/2015	11/30/2021	SCORP	2	9	COLLEGE AREA	21	COLLEGE AREA
N	RICHARD W PHILLIPS	RICH PHILLIPS AUTO SERVICE	7105	EL CAJON BLVD 				SAN DIEGO	CA	92115-1828	N	447	GASOLINE STATIONS	N	7/1/1989	6/30/2021	SOLE	2	9	MID-CITY:EASTERN AREA	21	COLLEGE AREA
Y	MICHAEL RICKEY	RICKEY'S EMERGENCY RESOURCES	6161	EL CAJON BLVD 	B-315			SAN DIEGO	CA	92115-3922	N	56199	EMERGENCY RESOURCES MANAGEMENT	N	4/20/2020	4/30/2021	SOLE	0	9	MID-CITY:EASTERN AREA	21	COLLEGE AREA
N	THRIFTY PAYLESS INC	RITE AID #5651	6405	EL CAJON BLVD 				SAN DIEGO	CA	92115-2646	N	44611	PHARMACIES & DRUG STORES	N	7/1/1994	10/31/2021	CORP	21	9	MID-CITY:EASTERN AREA	21	COLLEGE AREA
N	CHEUNG ROBERT S/ONG ESTHER J	ROBERT S CHEUNG DDS/ESTHER J L ONG DDS	4546	COLLEGE AVE 				SAN DIEGO	CA	92115-4008	N	6212	OFFICES OF DENTISTS	N	10/27/1982	9/30/2021	PARTNR	6	9	MID-CITY:EASTERN AREA	21	COLLEGE AREA
N	ROCK IO INSURANCE SERVICES INC	ROCK IO INSURANCE SERVICES INC	7125	EL CAJON BLVD 	7			SAN DIEGO	CA	92115-1851	N	52421	PROPERTY AND CASUALTY INSURANCE BROKER, WE SELL INSURANCE PRODUCTS TO CLIENTS.	N	1/6/2004	1/31/2021	SCORP	17	9	MID-CITY:EASTERN AREA	21	COLLEGE AREA
N	RON WILSON	RON WILSON REGISTRATION SERVICE	6970	EL CAJON BLVD 	A			SAN DIEGO	CA	92115-1738	N	56199	VEHICLE REGISTRATION DMV TRANSFER RENEWALLS PLATES AND TAGS ISSUED	N	3/1/2014	2/28/2021	SOLE	1	9	COLLEGE AREA	21	COLLEGE AREA
N	RONALD A HAWKINS	RONALD A HAWKINS	6470	EL CAJON BLVD 	228			SAN DIEGO	CA	92115-2665	Y	48531	TAXI	N	3/20/2006	3/31/2021	SOLE	0	9	COLLEGE AREA	21	COLLEGE AREA
N	OBERLIES ROSALIA	ROSALIA'S HAIR FASHIONS	4657	COLLEGE AVE 				SAN DIEGO	CA	92115-3904	N	812115	COSMOTOLOGIST - BOOTH RENTAL	N	9/1/1977	11/30/2020	SOLE	0	9	COLLEGE AREA	21	COLLEGE AREA
N	ROSALIE A GONZALEZ	ROSIE'S CALICO CUPBOARD	7151	EL CAJON BLVD 	F			SAN DIEGO	CA	92115-1819	N	45113	SEWING, NEEDLEWORK & PIECE GOODS STORES	N	6/15/1991	6/30/2021	SOLE	12	9	MID-CITY:EASTERN AREA	21	COLLEGE AREA
N	ROWDEN ENTERPRISES INC	ROWDEN ENTERPRISES	4466	COLLEGE AVE 				SAN DIEGO	CA	92115-5534	Y	54187	MAGAZINE AND FLYER DISTRIBUTION	N	3/18/2004	3/31/2021	CORP	0	9	MID-CITY:EASTERN AREA	21	COLLEGE AREA
N	VAN ZETTEN RUDI	RUDI VANZETTEN PLUMBING SERVICE	6161	EL CAJON BLVD 	B142			SAN DIEGO	CA	92115-3922	N	56172	JANITORIAL SERVICES	N	9/1/1977	11/30/2020	SOLE	1	9	MID-CITY:EASTERN AREA	21	COLLEGE AREA
N	RUDICK INSURANCE SERVICES INC	RUDICK INSURANCE SERVICES INC	5700	EL CAJON BLVD 				SAN DIEGO	CA	92115-3737	N	52421	INSURANCE AGENCIES & BROKERAGES	N	8/15/1996	8/31/2021	CORP	2	9	COLLEGE AREA	21	COLLEGE AREA
N	SAFI CAR RENTAL INC	SAFI CAR RENTAL	5905	EL CAJON BLVD 				SAN DIEGO	CA	92115-3827	N	53211	PASSENGER CARE RENTAL & LEASING	N	7/1/2019	6/30/2021	CORP	3	9	MID-CITY:EASTERN AREA	21	COLLEGE AREA
N	SVANGVITAYA LLC	SALA THAI RESTAURANT	6161	EL CAJON BLVD 	A			SAN DIEGO	CA	92115-3936	N	72211	FOOD SERVICE RESTAURANT	N	4/1/2009	3/31/2021	LLC	8	9	MID-CITY:EASTERN AREA	21	COLLEGE AREA
N	SALY LIM	SALY LIM	4657	COLLEGE AVE 				SAN DIEGO	CA	92115-3904	N	812115	BEAUTY SHOPS-BOOTH RENTAL	N	2/1/2020	1/31/2021	SOLE	0	9	COLLEGE AREA	21	COLLEGE AREA
N	SALY LIM	SALY LIM	4657	COLLEGE AVE 				SAN DIEGO	CA	92115-3904	N	812115	HAIRSTYLIST  BARBER  NAIL SALON	N	2/15/2017	2/28/2021	SOLE	0	9	COLLEGE AREA	21	COLLEGE AREA
Y	BALBOA NEPHROLOGY MEDICAL GROUP INC	SAN DIEGO ACCESS AND SURGERY CENTER	6402	EL CAJON BLVD 	100			SAN DIEGO	CA	92115-2645	N	6219	AMBULATORY SURGERY CENTER (CLINIC)	N	9/26/2018	9/30/2021	CORP	18		COLLEGE AREA	21	COLLEGE AREA
N	ANDREA D BERRY	SAN DIEGO BLACK PROFESSIONALS	4840	COLLEGE AVE 				SAN DIEGO	CA	92115-3907	N	514191	SOCIAL NETWORKING	N	1/1/2020	12/31/2020	SOLE	2	9	COLLEGE AREA	21	COLLEGE AREA
N	SD BLENDERS INC	SAN DIEGO BLENDERS	6663	EL CAJON BLVD 	I			SAN DIEGO	CA	92115-2851	N	722213	SMOOTHIES, SNACKS AND OTHER BEVERAGES	N	6/5/2003	6/30/2021	SCORP	1	9	MID-CITY:EASTERN AREA	21	COLLEGE AREA
N	SD BLENDERS INC	SAN DIEGO BLENDERS	6353	EL CAJON BLVD 	138			SAN DIEGO	CA	92115-2655	N	72221	SMOOTHIES, SNACKS AND OTHER BEVERAGES	N	9/1/2014	8/31/2021	SCORP	5	9	MID-CITY:EASTERN AREA	21	COLLEGE AREA
N	SAN DIEGO CENTER FOR THE BLIND	SAN DIEGO CENTER FOR THE BLIND	5922	EL CAJON BLVD 				SAN DIEGO	CA	92115-3826	N	8134	CIVIC & SOCIAL ORGANIZATIONS	N	7/25/1980	7/31/2021	NO/PRF	0	9	COLLEGE AREA	21	COLLEGE AREA
N	BOB J BELLMAN	SAN DIEGO COMICS	6937	EL CAJON BLVD 				SAN DIEGO	CA	92115-1754	N	45399	SELLING NEW AND USED COMIC BOOKS GRAPHIC NOVELS.	N	4/1/2016	3/31/2021	SOLE	0	9	MID-CITY:EASTERN AREA	21	COLLEGE AREA
Y	SAN DIEGO COUNTY CREDIT UNION	SAN DIEGO COUNTY CREDIT UNION	6145	EL CAJON BLVD 	3D			SAN DIEGO	CA	92115-3923	N	52213	FINANCIAL INSTITUTION	N	12/11/2019	12/31/2020	CORP	8	9	MID-CITY:EASTERN AREA	21	COLLEGE AREA
N	THE LIGHTHOUSE FOR THE BLIND INC	SAN DIEGO LIGHTHOUSE FOR THE BLIND	5922	EL CAJON BLVD 				SAN DIEGO	CA	92115-3826	N	561	PROVIDE SUPPORT FOR EXISTING BASE SUPPLY CENTER AND CONTRACT MANAGEMENT SERVICES IN SAN DIEGO	N	7/1/2011	6/30/2021	NO/PRF	7	9	COLLEGE AREA	21	COLLEGE AREA
N	VICTOR H JIMENEZ	SAN DIEGO STAR EVENTS HALL	7082	EL CAJON BLVD 				SAN DIEGO	CA	92115-1824	N	532	HALL RENTAL FOR WEDDINGS, QUINCEANERAS, KIDS PARTIES	N	2/16/2019	2/28/2021	SOLE	0	9	COLLEGE AREA	21	COLLEGE AREA
Y	SAN DIEGO STATE UNIVERSITY FOUNDATION	SAN DIEGO STATE UNIVERSITY RESEARCH FOUNDATION	5250	CAMPANILE DR 				SAN DIEGO	CA	92115	N	81356	SAN DIEGO STATE UNIVERSITY FOUNDATION (DBA SDSU RESEARCH FOUNDATION) SUPPORTS THE EDUCATIONAL, RESEARCH AND COMMUNITY SERVICE MISSIONS OF SAN DIEGO STATE UNIVERISTY	N	1/28/1943	1/31/2021	NO/PRF	1000	9	COLLEGE AREA	21	COLLEGE AREA
Y	SAN DIEGO TATTOO SUPPLY INC	SAN DIEGO TATTOO SUPPLY INC/SAN DIEGO BARBER SUPPL	7202	EL CAJON BLVD 				SAN DIEGO	CA	92115-1829	N	45439	TATTOO SUPPLY RETAIL DOOR TO DOOR	N	10/15/2010	10/31/2021	SCORP	0	9	COLLEGE AREA	21	COLLEGE AREA
N	SAN DIEGO TRAILER SUPPLY	SAN DIEGO TRAILER SUPPLY	6881	EL CAJON BLVD 				SAN DIEGO	CA	92115-1725	N	4539	OTHER MISCELLANEOUS STORE RETAILERS	N	9/1/1978	8/31/2021	CORP	0	9	MID-CITY:EASTERN AREA	21	COLLEGE AREA
N	JC SERVICE AND ENTERPRISES INC	SAN DIEGO TREATMENT AND RECOVERY CENTER	6244	EL CAJON BLVD 	26			SAN DIEGO	CA	92115-3918	N	62133	GROUP AND INDIVIDUAL THERAPY	N	8/28/2015	8/31/2021	CORP	1	9	COLLEGE AREA	21	COLLEGE AREA
N	BALBOA NEPHROLOGY MEDICAL GROUP	SAN DIEGO VASULAR ACCESS CENTER	6402	EL CAJON BLVD 	100			SAN DIEGO	CA	92115-2645	N	6223	OUT PATIENT VASCULAR ACCESS LAB	N	8/12/2002	8/31/2021	CORP	14		COLLEGE AREA	21	COLLEGE AREA
N	XIAO FEI YI	SEASONS SPA	6506	EL CAJON BLVD 	A			SAN DIEGO	CA	92115-2798	N	812198	FOOT, BODY MASSAGE	N	7/9/2019	7/31/2021	SOLE	0	9	COLLEGE AREA	21	COLLEGE AREA
N	AARON RASTEGARPOUR	SELLMAX	6866	EL CAJON BLVD 	A			SAN DIEGO	CA	92115-1724	N	42111	AUTOMOBILE WHOLESALE	N	2/21/2017	2/28/2021	SOLE	0	9	COLLEGE AREA                       	21	COLLEGE AREA
N	RICARDO & VICENTE DIAZ	SENOR PANCHO FRESH  MEX GRILL	5089	COLLEGE AVE 				SAN DIEGO	CA	92115-2404	N	7221	FULL-SERVICE RESTAURANTS	N	4/30/1986	10/31/2021	PARTNR	12	9	COLLEGE AREA	21	COLLEGE AREA
N	SCHOTTLAND INVESTMENTS LLC	SENSIBLE CAR RENTAL	6610	EL CAJON BLVD 				SAN DIEGO	CA	92115-2801	N	532111	AUTOMOBILE RENTAL	N	10/1/2019	9/30/2021	LLC	2	9	COLLEGE AREA	21	COLLEGE AREA
Y	TAIWO T BANKOLE	SERVE TO SAVE	6353	EL CAJON BLVD 	124-103			SAN DIEGO	CA	92115-2600	Y	8135	NON PROFIT ORGANIZATION FOR LOW INCOME FAMILY IN FOREIGN COUNTRIES	N	6/30/2014	6/30/2021	SOLE	0	9	MID-CITY:EASTERN AREA	21	COLLEGE AREA
N	MARIA ROSANA TORRES SEVILLA	SEVILLA REGISTRATION	6602	EL CAJON BLVD 	A101			SAN DIEGO	CA	92115-2875	N	81299	VEHICLE REGISTRATION SERVICE, RENEW TAGS, DUP TITLES OF CALIFORNIA, LICENSE PLATES	N	8/14/2019	8/31/2021	SOLE	0	9	COLLEGE AREA	21	COLLEGE AREA
N	HO NAM V	SEW ELEGANT	5639	EL CAJON BLVD 				SAN DIEGO	CA	92115-3736	N	54199	ALL OTH PROF, SCIENTIFIC & TECHNICAL SERVICES	N	1/1/2002	12/31/2020	SOLE	1	9	MID-CITY:EASTERN AREA	21	COLLEGE AREA
N	ISMETHA PERRY & XAVIER J PERRY	SEXY FASHION SECRET	5925	EL CAJON BLVD 	107			SAN DIEGO	CA	92115-3837	Y	5614	DROPSHIPPING STORE	N	5/20/2019	5/31/2021	H-W	0	9	MID-CITY:EASTERN AREA	21	COLLEGE AREA
N	SHAKE SMART INC	SHAKE SMART INC	5500	CAMPANILE DR 				SAN DIEGO	CA	92115-1701	N	722213	SMOOTHIE KIOSK	N	1/3/2011	1/31/2021	CORP	26	9	COLLEGE AREA	21	COLLEGE AREA
N	WAMIDH J TAMERO	SHIELD AUTOMOTIVE	7006	EL CAJON BLVD 				SAN DIEGO	CA	92115-1824	N	8111	AUTOMOTIVE REPAIRS	N	1/1/2015	12/31/2020	SOLE	0	9	COLLEGE AREA	21	COLLEGE AREA
Y	YONAS A WORKU	SIDAMA CAB	6470	EL CAJON BLVD 	233			SAN DIEGO	CA	92115-2665	Y	48531	TAXI DRIVER	N	4/30/2012	4/30/2021	SOLE	0	9	COLLEGE AREA                       	21	COLLEGE AREA
Y	DINA R MUNDO	SKIN MUNDO	6375	EL CAJON BLVD 	D			SAN DIEGO	CA	92115-2656	N	812112	FACIALS, WAXING AND RETAIL	N	8/1/2020	7/31/2021	SOLE	0	9	MID-CITY:EASTERN AREA	21	COLLEGE AREA
N	SMART & FINAL STORES LLC	SMART & FINAL #355	6235	EL CAJON BLVD 				SAN DIEGO	CA	92115-3917	N	4224	GROCERY & RELATED PRODUCT WHSLE	N	7/10/1985	8/31/2021	LLC	19	9	MID-CITY:EASTERN AREA	21	COLLEGE AREA
N	SMASHBURGER ACQUISITION SAN DIEGO LLC	SMASHBURGER #1491	6061	EL CAJON BLVD 	C			SAN DIEGO	CA	92115-3845	N	722211	FAST CASUAL RESTAURANT	N	12/2/2014	12/31/2020	LLC	5	9	MID-CITY:EASTERN AREA	21	COLLEGE AREA
Y	BRIAN DOMIN B BARGA IV & PINLADA P BARGA	SNAZZY MAMA BOUTIQUE	4466	COLLEGE AVE 				SAN DIEGO	CA	92115-5534	Y	45411	SELL MATERNITY/NURSING CLOTHING	N	1/1/2017	12/31/2020	H-W	0	9	MID-CITY:EASTERN AREA	21	COLLEGE AREA
N	SARA NINTEMAN & ERIC COOPER	SO AMAZING TATTOOING AND AIRBRUSHING	6602	EL CAJON BLVD 	G			SAN DIEGO	CA	92115	N	812196	TATTOO SHOP AND AIRBRUSHING	N	4/15/2018	4/30/2021	PARTNR	0	9	COLLEGE AREA	21	COLLEGE AREA
N	SAMBATH PROM-CHIEM & SANGVOURN THONG	SO CAL SALON & SPA	4657	COLLEGE AVE 				SAN DIEGO	CA	92115-3904	N	812112	HAIR, NAIL AND WAX SALON	N	2/26/2019	2/28/2021	PARTNR	5	9	COLLEGE AREA	21	COLLEGE AREA
N	SOAS RACING LLC	SOAS RACING LLC	7220	EL CAJON BLVD 	A			SAN DIEGO	CA	92115-1829	N	448	DESIGN AND PRODUCITON OF TRIATHOLON RACE GEAR SALES AND DISTGRIBUTION OF SOAS BRAND SPORTING APPARELL	N	8/21/2009	8/31/2021	LLC	5	9	COLLEGE AREA                       	21	COLLEGE AREA
Y	TAHEERA Y CAMACHO	SONIC AUTOMOTIVE & PAINT	5809	EL CAJON BLVD 				SAN DIEGO	CA	92115-3741	Y	454	SALES	N	4/1/2020	3/31/2021	SOLE	0		MID-CITY:EASTERN AREA	21	COLLEGE AREA
Y	SOPHY YANG	SOPHY YANG	6435	EL CAJON BLVD 				SAN DIEGO	CA	92115-2646	N	812115	I RENT BOOTH AT LINDA SALON DO HAIR ONLY NO RETAIL SALES	N	9/1/2012	8/31/2021	SOLE	0	9	MID-CITY:EASTERN AREA	21	COLLEGE AREA
N	SPEEDY CASH	SPEEDY CASH	6686	EL CAJON BLVD 				SAN DIEGO	CA	92115-2873	N	5223	DEFERRED DEPOSIT FINANCE LENDER CHECK CASHING SECOND HAND DEALER GOLD BUYING	N	3/27/2015	3/31/2021	CORP	10	9	COLLEGE AREA	21	COLLEGE AREA
Y	DANIEL MARGOTT	SQUEEGEE WINDOW CLEANING	6161	EL CAJON BLVD 	424			SAN DIEGO	CA	92115-3922	Y	56172	CLEANING WINDOWS INSIDE/OUT. CLEANING SCREENS.	N	3/20/2017	3/31/2021	SOLE	0	9	MID-CITY:EASTERN AREA	21	COLLEGE AREA
N	CHAU LE NHA KY	STAR BARBER	6686	EL CAJON BLVD 	B			SAN DIEGO	CA	92115-2800	N	812111	HAIR CUT	N	9/1/2016	8/31/2021	SOLE	0	9	COLLEGE AREA	21	COLLEGE AREA
N	STARBUCKS	STARBUCKS	5131	COLLEGE AVE 				SAN DIEGO	CA	92115-2433	N	72221	COFFEE AND SNACKS	N	8/1/2014	7/31/2021	SCORP	15	9	COLLEGE AREA	21	COLLEGE AREA
N	STARBUCKS CORPORATION	STARBUCKS COFFEE #8706	6701	EL CAJON BLVD 				SAN DIEGO	CA	92115-1621	N	722213	RETAIL CAFE	N	3/26/2004	3/31/2021	CORP	15	9	MID-CITY:EASTERN AREA	21	COLLEGE AREA
N	STARLIGHT MKT INC	STARLIGHT MARKET	7020	EL CAJON BLVD 				SAN DIEGO	CA	92115-1824	N	4453	LIQUOR STORE	N	9/15/2012	9/30/2021	CORP	2	9	COLLEGE AREA	21	COLLEGE AREA
N	STEREO DEPOT INC	STEREO DEPOT	6445	EL CAJON BLVD 				SAN DIEGO	CA	92115-2646	N	44131	STEREO SHOP FOR AUTO ALARMS VIDEO INSTALLATIONS.	N	5/1/2006	4/30/2021	CORP	2	9	MID-CITY:EASTERN AREA	21	COLLEGE AREA
N	VICTOR I URQUIDEZ & JUAN E PAULIN	STRAIGHT WIRE ORTHODOTIC LABORATORY	7283	EL CAJON BLVD 				SAN DIEGO	CA	92115-1835	N	56149	PRODUCTION OF ORTHODONTICS APPLIANCES FOR DENTIST	N	2/24/2020	2/28/2021	PARTNR	0	9	MID-CITY:EASTERN AREA	21	COLLEGE AREA
N	STUDIO 6608 LLC	STUDIO 6608	6608	EL CAJON BLVD 				SAN DIEGO	CA	92115-2801	N	71151	STUDIO 6608 IS A LARGE DESIGN STYDUI THAT HAS BEEN DIVIDED INTO SMALLER STUDIO SPACES THESE SPACES ARE RENTED TO ARTISTS, DESIGNERS, CRAFTS PEOPLE	N	5/1/2010	4/30/2021	LLC	0	9	COLLEGE AREA	21	COLLEGE AREA
N	REDONDO ALFONSO H	STUDIO 69	6911	EL CAJON BLVD 				SAN DIEGO	CA	92115-1754	N	81355	BEAUTY SALONS	N	7/1/1974	6/30/2021	SOLE	0	9	MID-CITY:EASTERN AREA	21	COLLEGE AREA
N	JESS D SERRANO & MARY K PALUSO	STUDIO 69	6917	EL CAJON BLVD 				SAN DIEGO	CA	92115-1754	N	812112	BEAUTY SALONS HAIR AND COLORING, PERM SERVICES	N	2/1/1990	1/31/2021	PARTNR	6	9	MID-CITY:EASTERN AREA	21	COLLEGE AREA
N	SDSU SUBS LLC	SUBWAY 57844	5500	CAMPANILE DR 				SAN DIEGO	CA	92115-1701	N	7222	FAST FOOD	N	9/1/2015	8/31/2021	LLC	3	9	COLLEGE AREA	21	COLLEGE AREA
N	A FINE PROPERTY INC	SUNCO FUEL	7006	EL CAJON BLVD 				SAN DIEGO	CA	92115-1824	N	44711	GAS STATION RETAIL	N	11/1/2008	10/31/2021	SCORP	6	9	COLLEGE AREA	21	COLLEGE AREA
N	LARES EZEQUIEL	SUNSET AUTO BODY AND PAINTING	6540	EL CAJON BLVD 				SAN DIEGO	CA	92115-2704	N	811121	AUTOMOTIVE BODY, PAINT & INTERIOR R&M	N	3/4/1987	2/28/2021	SOLE	2	9	COLLEGE AREA	21	COLLEGE AREA
N	YI WANG	SUNSHINE SPA	6512	EL CAJON BLVD 	J			SAN DIEGO	CA	92115-2703	N	812198	FOOT AND BODY MASSAGE	N	7/2/2019	7/31/2021	SOLE	2	9	COLLEGE AREA	21	COLLEGE AREA
N	CSG ENTERPRISES	SUPERCUTS	6011	EL CAJON BLVD 				SAN DIEGO	CA	92115-3841	N	812112	HAIRSALON	N	6/1/2006	5/31/2021	CORP	10	9	MID-CITY:EASTERN AREA	21	COLLEGE AREA
N	NGUYEN TAM KHUAT	SUPERNAIL	6165	EL CAJON BLVD 	J			SAN DIEGO	CA	92115-3927	N	812112	BEAUTY SALONS	N	7/5/1985	9/30/2021	SOLE	0	9	MID-CITY:EASTERN AREA	21	COLLEGE AREA
Y	SURF AND SOUL SPOT LLC	SURF AND SOUL SPOT LLC	7229	EL CAJON BLVD 				SAN DIEGO	CA	92115-1830	N	722211	FAST CASUAL SOUL FOOD TAKEOUT	N	10/18/2019	10/31/2021	LLC	4	9	MID-CITY:EASTERN AREA	21	COLLEGE AREA
N	SUSY KEO	SUSY KEO	4657	COLLEGE AVE 				SAN DIEGO	CA	92115-3904	N	812115	BEAUTY BOOTH RENTAL	N	5/1/2007	4/30/2021	SOLE	0	9	COLLEGE AREA	21	COLLEGE AREA
Y	T C G MOTOR VEHICLES LLC	T C G MOTOR VEHICLES LLC	6610	EL CAJON BLVD 	101			SAN DIEGO	CA	92115-2801	N	44112	RETAIL USED MOTOR VECHICLES SALES.	N	6/1/2011	5/31/2021	LLC	0	9	COLLEGE AREA	21	COLLEGE AREA
N	ISAMU MORIKIZONO	TAJIMA RAMEN COLLEGE HEIGHTS	6061	EL CAJON BLVD 	2			SAN DIEGO	CA	92115-3843	N	72211	FULL SERCVICE RESTAURANT	N	5/15/2019	5/31/2021	SOLE	35	9	MID-CITY:EASTERN AREA	21	COLLEGE AREA
N	SIMON H OLIVERI & HEZTHEVAN GARCIA	TAKO FACTORY	7287	EL CAJON BLVD 				SAN DIEGO	CA	92115-1835	N	72221	SELL A VARIETY OF TACOS	N	8/1/2013	7/31/2021	PARTNR	0	9	MID-CITY:EASTERN AREA	21	COLLEGE AREA
N	TAP TRUCK LLC	TAP TRUCK LLC	6548	EL CAJON BLVD 				SAN DIEGO	CA	92115-2704	N	532	PARTY RENTAL	N	12/15/2016	12/31/2020	LLC	2	9	COLLEGE AREA	21	COLLEGE AREA
N	LEE USA 888 INC	TAPIOCA EXPRESS	6145	EL CAJON BLVD 	G			SAN DIEGO	CA	92115-3923	N	722213	SOFT DRINKS & SNACKS RETAIL SALES	N	4/1/2011	3/31/2021	SCORP	4	9	MID-CITY:EASTERN AREA	21	COLLEGE AREA
N	TEAM POWER TIRES INC	TEAM POWER TIRES INC	6130	EL CAJON BLVD 				SAN DIEGO	CA	92115-3914	N	4533	USED MERCHANDISE STORES	N	4/1/1998	3/31/2021	CORP	2	9	COLLEGE AREA	21	COLLEGE AREA
N	TEKA D ABEBE	TEKA D ABEBE	6470	EL CAJON BLVD 	236			SAN DIEGO	CA	92115-2666	Y	48531	TAXI CAB DRIVER	N	7/11/2007	7/31/2021	SOLE	0	9	COLLEGE AREA                       	21	COLLEGE AREA
Y	TERRA AMERICAN BISTRO INC	TERRA AMERICAN BISTRO & CATERING/ SHALOM CATERING	7091	EL CAJON BLVD 				SAN DIEGO	CA	92115-1825	N	7221	RESTAURANT	N	4/1/2011	3/31/2021	SCORP	25	9	MID-CITY:EASTERN AREA	21	COLLEGE AREA
N	TERRI L CALDWELL	TERRIS VENDING	5526	EL CAJON BLVD 				SAN DIEGO	CA	92115-3623	N	45421	SODA MACHINE CANDY MACHINE CIGARETTES SOLD BY CASHIER	N	1/1/2009	12/31/2020	SOLE	0	9	COLLEGE AREA	21	COLLEGE AREA
N	SRIWICHAI LLC	THAI STYLE MASSAGE	6663	EL CAJON BLVD 	P			SAN DIEGO	CA	92115-2852	N	812198	MASSAGE THERAPY	N	3/5/2014	3/31/2021	LLC	2	9	MID-CITY:EASTERN AREA	21	COLLEGE AREA
N	CHINDAPHORN AND MIKE XAYAVONG	THAI TASTE 1	7030	EL CAJON BLVD 				SAN DIEGO	CA	92115-1824	N	72211	RESTAURANT THAI FULL SERVICE	N	6/1/2011	5/31/2021	H-W	6	9	COLLEGE AREA	21	COLLEGE AREA
N	ANGELA SANDOVAL	THE ALCOVE	5540	EL CAJON BLVD 				SAN DIEGO	CA	92115-3623	N	72211	WINE & BEER RESTAURANT	N	2/6/2019	2/28/2021	SOLE	0	9	COLLEGE AREA	21	COLLEGE AREA
Y	ELENA SHAKUTO	THE ART LOUNGE	5602	EL CAJON BLVD 				SAN DIEGO	CA	92115-3735	N	812196	TATTOO AND PERMANENT MAKEUP STUDIO	N	9/14/2019	9/30/2021	SOLE	0	9	COLLEGE AREA	21	COLLEGE AREA
N	AARSHA AUTO GROUP INC	THE AUTO MART	6880	EL CAJON BLVD 				SAN DIEGO	CA	92115-1724	N	44112	USED CAR DEALERS	N	8/26/1996	8/31/2021	CORP	0	9	COLLEGE AREA	21	COLLEGE AREA
N	DAMON ENTERPRISES INC	THE BLVD	6949	EL CAJON BLVD 	A			SAN DIEGO	CA	92115-1739	N	7224	DRINKING PLACES (ALCOHOLIC BEVERAGES)	N	2/6/1997	2/28/2021	CORP	5	9	MID-CITY:EASTERN AREA	21	COLLEGE AREA
N	LENBARON ENTERPRISES, LLC	THE CAR GROTTO / THE BOAT GROTTO	7111	EL CAJON BLVD 	A			SAN DIEGO	CA	92115-1828	N	44112	USED CAR DEALERS	N	11/1/1994	10/31/2021	LLC	3	9	MID-CITY:EASTERN AREA	21	COLLEGE AREA
N	ANTHONY GANAWAY II	THE CUTT'N EDGE	6485	EL CAJON BLVD 				SAN DIEGO	CA	92115-2646	N	812111	BARBERSHOP	N	10/15/2013	10/31/2021	SOLE	1	9	MID-CITY:EASTERN AREA	21	COLLEGE AREA
Y	FOXPEOPLES LLC	THE GO LOUNGE	7123	EL CAJON BLVD 				SAN DIEGO	CA	92115-1828	N	7224	DRINKING PLACES (ALCOHOLIC BEVERAGES)	N	2/27/2017	2/28/2021	LLC	0	9	MID-CITY:EASTERN AREA	21	COLLEGE AREA
N	THE GOLDEN STANDARD LLC	THE GOLDEN STANDARD	6161	EL CAJON BLVD 	B419			SAN DIEGO	CA	92115-3922	N	45421	VENDING/ATM OPERATOR	N	9/6/2017	9/30/2021	LLC	1	9	MID-CITY:EASTERN AREA	21	COLLEGE AREA
Y	THE HABIT RESTAURANTS LLC	THE HABIT BURGER GRILL	5500	CAMPANILE DR 				SAN DIEGO	CA	92115-1701	N	7222	FAST CASUAL DINING	N	1/29/2014	1/31/2021	LLC	25	9	COLLEGE AREA	21	COLLEGE AREA
N	THE HALAL SHACK SDSU LLC	THE HALAL SHACK SDSU LLC	5500	CAMPANILE DR 				SAN DIEGO	CA	92115-1701	N	72	ACCOMMODATION & FOOD SERVICES	N	7/15/2019	7/31/2021	LLC	0	9	COLLEGE AREA	21	COLLEGE AREA
N	THE LITTLE FLOWER LLC	THE LITTLE FLOWER LLC	5547	EL CAJON BLVD 				SAN DIEGO	CA	92115-3624	N	45311	FLORAL ARRANGEMENTS	N	7/5/2014	7/31/2021	LLC	0	9	MID-CITY:EASTERN AREA	21	COLLEGE AREA
N	ZSAL LIVING ROOM INC	THE LIVING ROOM COFFEEHOUSE	5900	EL CAJON BLVD 				SAN DIEGO	CA	92115-3826	N	722212	COFFEEHOUSE, DELI RESTAURANT	N	7/1/2016	6/30/2021	SCORP	23	9	COLLEGE AREA	21	COLLEGE AREA
N	MARCI KYLE	THE LOTUS COUNSELING CENTER MARCI KYLE LCSW	6244	EL CAJON BLVD 	3			SAN DIEGO	CA	92115-3918	N	62133	MENTAL HEALTH COUNSELING.	N	9/4/2017	9/30/2021	SOLE	0	9	COLLEGE AREA	21	COLLEGE AREA
N	THE MEMBERS ONLY LOUNGE LLC	THE MEMBERS ONLY LOUNGE LLC	6340	EL CAJON BLVD 				SAN DIEGO	CA	92115-2641	N	7115	RADIO, PODCAST, EVENTS	N	7/26/2019	7/31/2021	LLC	2	9	COLLEGE AREA	21	COLLEGE AREA
N	SARAH O TWAMLEY	THE UNCLUTTERED HOME	6021	ADAMS AVE 				SAN DIEGO	CA	92115-3806	Y	81299	PROFESSIONAL HOME ORGANIZER, PACKING AND UNPACKING ORGANIZER	N	5/21/2019	5/31/2021	SOLE	0	9	COLLEGE AREA	21	COLLEGE AREA
N	THE UPS STORE INC	THE UPS STORE	6353	EL CAJON BLVD 	124			SAN DIEGO	CA	92115-2655	N	56149	SHIPPING SERVICE   PACKAGING SUPPLIES   SERVICES   OFFICE SUPPLIES   MAIL SERVICE	N	2/28/2015	2/28/2021	CORP	2		MID-CITY:EASTERN AREA	21	COLLEGE AREA
Y	THUMBS UP! LLC	THUMBS UP! LLC	6450	MONTEZUMA RD 				SAN DIEGO	CA	92115-2637	Y	81299	EVENT PLANNING, BAR SERVICE, STREET VENDING	N	2/18/2014	2/28/2021	SOLE	0	9	COLLEGE AREA	21	COLLEGE AREA
N	TIFFANY L MOORE	TIFFANYLORINE&CO	6353	EL CAJON BLVD 	124			SAN DIEGO	CA	92115-2655	N	454	RETAIL	N	8/31/2019	8/31/2021	SOLE	0		MID-CITY:EASTERN AREA	21	COLLEGE AREA
N	TINA GREENBANK	TINA GREENBANK	4657	COLLEGE AVE 				SAN DIEGO	CA	92115-3904	N	812115	BEAUTY SALON - BOOTH RENTAL	N	1/13/2020	1/31/2021	SOLE	0	9	COLLEGE AREA	21	COLLEGE AREA
N	HAI T HUYNH	TINA'S ALTERATIONS AND TAILORING	6342	EL CAJON BLVD 				SAN DIEGO	CA	92115-2641	N	8129	ALTERATION AND TAILORING	N	3/11/2008	3/31/2021	SOLE	0	9	COLLEGE AREA	21	COLLEGE AREA
N	SMITH COLIN N	TIRES BY VALVE INC TOP VALVE TIRE	7073	EL CAJON BLVD 	D			SAN DIEGO	CA	92115-1825	N	811111	GENERAL AUTOMOTIVE REPAIR	N	1/9/1985	12/31/2020	CORP	4	9	MID-CITY:EASTERN AREA	21	COLLEGE AREA
N	SUSHI LOHA JAPANESE BISTRO	TOKYO SUSHI LOHA	6502	EL CAJON BLVD 				SAN DIEGO	CA	92115-2701	N	722	SUSHI RESTAURANT.	N	9/15/2013	9/30/2021	SCORP	16	9		21	COLLEGE AREA
N	BINTI WU	TOP 10 ORIENTAL RESTAURANT	6165	EL CAJON BLVD 	A			SAN DIEGO	CA	92115-3927	N	72211	RESTAURANT	N	4/30/2015	4/30/2021	SOLE	5	9	MID-CITY:EASTERN AREA	21	COLLEGE AREA
Y	PASPURPER LLC	TOTAL CARE RECOVERY SERVICES 	6161	EL CAJON BLVD 	B-428			SAN DIEGO	CA	92115-3922	N	541615	RECOVERY CONSULTING AND SERVICES	N	8/12/2019	8/31/2021	LLC	1	9	MID-CITY:EASTERN AREA	21	COLLEGE AREA
Y	TRADER JOES COMPANY	TRADER JOES 224	5140	COLLEGE AVE 	119			SAN DIEGO	CA	92115-2447	N	445	RETAIL GROCERY STORE	N	5/19/2017	5/31/2021	CORP	84	9	COLLEGE AREA	21	COLLEGE AREA
N	TOMAS J ARCHULETA	TRUE FIT TATTOO	6561	EL CAJON BLVD 				SAN DIEGO	CA	92115-2705	N	812196	PERFORMING TATTOOS	N	3/8/2014	3/31/2021	SOLE	0	9	MID-CITY:EASTERN AREA	21	COLLEGE AREA
Y	NOE TRUJILLO & CRISTINA TRUJILLO	TRUJILLO'S TACO SHOP #1	6450	EL CAJON BLVD 				SAN DIEGO	CA	92115-2645	N	72221	TACO SHOP	N	9/1/2014	8/31/2021	H-W	0	9	COLLEGE AREA	21	COLLEGE AREA
N	NOE A TRUJILLO MARIA C TRUJILLO	TRUJILLOS TACO SHOP #2	5119	COLLEGE AVE 				SAN DIEGO	CA	92115-2411	N	7223	RESTAURANT FOOD HANDLING   	N	9/2/2002	9/30/2021	H-W	0	9	COLLEGE AREA	21	COLLEGE AREA
N	TOAN TRUONG	TT ACUPUNCTURE	4529	COLLEGE AVE 				SAN DIEGO	CA	92115-4010	N	621399	ALTERNATIVE ORIENTAL MEDICINE USE ACUPUNTURE NEEDLES MOXA (THE TYPE OF CHINESE HERB) CUPPING MASSAGE TO TREAT PATIENTS.	N	4/10/2007	4/30/2021	SOLE	0	9	MID-CITY:EASTERN AREA	21	COLLEGE AREA
N	ALL STARS RESTAURANT INC	UGLY DOG	6344	EL CAJON BLVD 				SAN DIEGO	CA	92115-2641	N	72241	BAR- BEER AND WINE ONLY.	N	7/15/2016	7/31/2021	CORP	9	9	COLLEGE AREA	21	COLLEGE AREA
N	ULTREYA COFFEE AND TEA LLC	ULTREYA COFFEE AND TEA LLC	4653	COLLEGE AVE 				SAN DIEGO	CA	92115-3904	N	722213	COFFEESHOP	N	6/1/2018	5/31/2021	LLC	2	9	COLLEGE AREA	21	COLLEGE AREA
N	STAR OF DAVID ENTERPRISES INC	UNICARS	6580	EL CAJON BLVD 				SAN DIEGO	CA	92115-2707	N	44112	USED CAR DEALER	N	3/1/2010	2/28/2021	CORP	0	9	COLLEGE AREA	21	COLLEGE AREA
N	UNIQUE AUTO GROUP INC	UNIQUE AUTO GROUP INC	5832	EL CAJON BLVD 				SAN DIEGO	CA	92115-3740	N	44112	RETAIL SALES OF USED VEHICLES	N	9/15/2006	9/30/2021	CORP	2	9	COLLEGE AREA	21	COLLEGE AREA
N	REZA AGHAJAVADYHA	UNIQUE AUTOMOTIVE GROUP	5832	EL CAJON BLVD 				SAN DIEGO	CA	92115-3740	N	44112	USED AUTO DEALESHIP	N	3/1/2017	2/28/2021	SOLE	3	9	COLLEGE AREA	21	COLLEGE AREA
N	DAGUANG SUN	UNIQUE FOOT MASSAGE	6610	EL CAJON BLVD 				SAN DIEGO	CA	92115-2801	N	812193	MASSAGE/SPA	Y	10/21/2020	10/31/2021	SOLE	2	9	COLLEGE AREA	21	COLLEGE AREA
N	RONALD P PATTERSON	UNIQUE VISUAL MEDIA	4812	70TH ST 	15			SAN DIEGO	CA	92115-3080	Y	54143	WEB DEIGN, GRAPHIC DESIGN	N	4/5/2019	4/30/2021	SOLE	0	9	MID-CITY:EASTERN AREA              	21	COLLEGE AREA
N	AZTEC SHOPS LTD	UNIVERISTY TOWERS	5505	MONTEZUMA RD 				SAN DIEGO	CA	92115-2316	N	81351	ROOMING & BOARDING HOUSES	N	5/1/2001	4/30/2021	CORP	40	9	COLLEGE AREA	21	COLLEGE AREA
Y	EMI RIGGINS	URBAN CUTZ BARBERSHOP	6781	EL CAJON BLVD 				SAN DIEGO	CA	92115-1621	N	812111	BARBER SHOP	N	9/7/2010	9/30/2021	SOLE	0	9	MID-CITY:EASTERN AREA	21	COLLEGE AREA
N	US BANK NATIONAL ASSOCIATION	US BANK	6155	EL CAJON BLVD 				SAN DIEGO	CA	92115-3915	N	81358	BANKING.	N	9/1/2017	8/31/2021	CORP	0	9	MID-CITY:EASTERN AREA	21	COLLEGE AREA
N	US BANK NATIONAL ASSOCIATION	US BANK	5500	CAMPANILE DR 				SAN DIEGO	CA	92115-1701	N	81358	BANKING.	N	9/1/2017	8/31/2021	CORP	0	9	COLLEGE AREA	21	COLLEGE AREA
N	UT NAILS & SPA	UT NAILS & SPA	6512	EL CAJON BLVD 	F			SAN DIEGO	CA	92115-2703	N	812113	NAILS SALON	N	1/1/2017	12/31/2020	SCORP	0	9	COLLEGE AREA	21	COLLEGE AREA
Y	VINCENZO A STORNIOLO	V & C MARKER COUNSULTING	6316	EL CAJON BLVD 				SAN DIEGO	CA	92115-2641	N	81299	CONSULTING AND REPAIR SERVICES INVOLVING GRAVESTONE MARKERS	N	8/10/2005	8/31/2021	SOLE	0	9	COLLEGE AREA	21	COLLEGE AREA
N	HADI YAHYAPOUR	VH MOTORSPORTS & ACCESSORIES	6620	EL CAJON BLVD 				SAN DIEGO	CA	92115-2801	N	4413	RETAIL AND WHOLESALE OF NEW AND USED AUTO PARTS.	N	2/14/2020	2/28/2021	SOLE	1	9	COLLEGE AREA	21	COLLEGE AREA
N	TRANG THI VAN	VICTORIAN NAILS	5842	MONTEZUMA RD 				SAN DIEGO	CA	92115-2340	N	81211	MANICURE SERVICES.	N	4/1/2018	3/31/2021	SOLE	1	9	COLLEGE AREA	21	COLLEGE AREA
Y	VICTORS TIRE SHOP INC	VICTORS TIRE SHOP #3	6554	EL CAJON BLVD 				SAN DIEGO	CA	92115-2707	N	44132	SALE OF NEW AND USED TIRES	N	5/6/2019	5/31/2021	CORP	1	9	COLLEGE AREA	21	COLLEGE AREA
Y	VILMA ALTAMIRANO	VILMA ALTAMIRANO	6161	EL CAJON BLVD 	B190			SAN DIEGO	CA	92115-3922	Y	56172	JANITORIAL SERVICES 	N	7/1/2011	6/30/2021	SOLE	0	9	MID-CITY:EASTERN AREA	21	COLLEGE AREA
N	VINA HOSPITALITY INC	VINA HOSPITALITY INC	6840	EL CAJON BLVD 				SAN DIEGO	CA	92115-1724	N	72111	HOTELS (EXC CASINO HOTELS) & MOTELS	N	9/1/2015	8/31/2021	CORP	0	9	COLLEGE AREA                       	21	COLLEGE AREA
N	VISHIONS SDSU PARTNERSHIP	VISHIONS SDSU	5807	EL CAJON BLVD 				SAN DIEGO	CA	92115-3741	N	453991	TOBACCO SHOP	N	8/17/2015	7/31/2021	PARTNR	1	9	MID-CITY:EASTERN AREA	21	COLLEGE AREA
N	VIVINT INC	VIVINT INC	6784	EL CAJON BLVD 	I			SAN DIEGO	CA	92115-1602	N	561621	SALES AND INSTALLATION OF SECURITY SYSTEMS DOOR TO DOOR 	N	4/30/2007	4/30/2021	CORP	12	9	COLLEGE AREA	21	COLLEGE AREA
N	VOGO INC	VOGO INC	5120	COLLEGE AVE 	122			SAN DIEGO	CA	92115-2445	N	72211	RESTAURANT.	N	5/1/2018	4/30/2021	CORP	17	9	COLLEGE AREA	21	COLLEGE AREA
N	VONS COMPANIES INC	VONS #2352	6155	EL CAJON BLVD 				SAN DIEGO	CA	92115-3915	N	4451	GROCERY STORES. HOME DELIEVERY. 	N	8/29/1988	10/31/2021	CORP	86	9	MID-CITY:EASTERN AREA	21	COLLEGE AREA
N	WASH N GO LAUNDRY INC	WASH N GO LAUNDRY	6931	EL CAJON BLVD 				SAN DIEGO	CA	92115-1754	N	81231	COIN LAUNDARY	N	11/15/2013	11/30/2020	SCORP	0	9	MID-CITY:EASTERN AREA	21	COLLEGE AREA
N	WE ARE TRANSLATIONS INC	WE ARE TRANSLATIONS INC	6512	EL CAJON BLVD 	A			SAN DIEGO	CA	92115-2703	N	812112	BEAUTY SALON	N	2/15/2016	2/28/2021	CORP	3	9	COLLEGE AREA	21	COLLEGE AREA
N	SUNBELT TOWING INC	WESTERN TOWING SERVICE	7182	EL CAJON BLVD 				SAN DIEGO	CA	92115-1827	N	48841	TOWING AND STORAGE	N	6/12/1989	6/30/2021	CORP	1	9	COLLEGE AREA	21	COLLEGE AREA
N	KIANTI RESTAURANT GROUP INC	WILD THYME	5841	EL CAJON BLVD 				SAN DIEGO	CA	92115-3741	N	72	ACCOMMODATION & FOOD SERVICES	N	3/12/2019	3/31/2021	CORP	0	9	MID-CITY:EASTERN AREA	21	COLLEGE AREA
N	CERAVOLO WILLIAM	WILLIAM CERAVOLO ENROLLED AGENT	5067	CAMPANILE DR 				SAN DIEGO	CA	92115-2334	N	5412	ACCOUNTING/TAX PREP/BOOKKEEP/PAYROLL SERVICES	N	11/1/1997	10/31/2021	SOLE	2	9	COLLEGE AREA	21	COLLEGE AREA
N	HOTWINGS INC	WINGS 'N' THINGS	6715	EL CAJON BLVD 				SAN DIEGO	CA	92115-1621	N	7221	FULL-SERVICE RESTAURANTS	N	3/14/1985	1/31/2021	CORP	20	9	MID-CITY:EASTERN AREA	21	COLLEGE AREA
N	WOODSTOCK'S PIZZA LLC	WOODSTOCK'S PIZZA	6145	EL CAJON BLVD 	P			SAN DIEGO	CA	92115-3923	N	722	FOOD SERVICES & DRINKING PLACES	N	10/23/2001	10/31/2021	CORP	40	9	MID-CITY:EASTERN AREA	21	COLLEGE AREA
N	LUCKY LADY SAN DIEGO INC	XO  RESTAURANT & BAR	5522	EL CAJON BLVD 				SAN DIEGO	CA	92115-3623	N	72211	BAR AND RESTAURANT	N	11/26/2015	11/30/2021	CORP	5	9	COLLEGE AREA	21	COLLEGE AREA
N	YAMEI WU	YAMEI WU	6512	EL CAJON BLVD 	J			SAN DIEGO	CA	92115-2703	N	812198	MASSAGE THERAPIST.	N	10/11/2018	10/31/2021	SOLE	1	9	COLLEGE AREA	21	COLLEGE AREA
N	BRITTNEY POPPE	YOGA WITH POPPE/ THE YOGA NEST	7220	EL CAJON BLVD 				SAN DIEGO	CA	92115-1829	N	611626	YOGA TEACHER	N	10/1/2018	9/30/2021	SOLE	1	9	COLLEGE AREA	21	COLLEGE AREA
N	JJT THREE STAR INC	YOGURT LAND	6165	EL CAJON BLVD 	N			SAN DIEGO	CA	92115-3927	N	72221	YOGURT, SOFT DRINKS AND SNACK SHOP	N	3/1/2008	2/28/2021	SCORP	0	9	MID-CITY:EASTERN AREA	21	COLLEGE AREA
N	JOSE L REYES	YUMMY YUMMY JUICE BAR	6784	EL CAJON BLVD 	B-1			SAN DIEGO	CA	92115-1602	N	722213	NON-ALCOHOLIC DRINKS	N	1/1/2020	12/31/2020	SOLE	0	9	COLLEGE AREA                       	21	COLLEGE AREA
Y	MOHAMED ASAFA WOCHE	ZAM ZAM CAB	6470	EL CAJON BLVD 	116			SAN DIEGO	CA	92115-2660	Y	48531	CAB BUSINESS WITHIN SAN DIEGO	N	10/27/2009	10/31/2021	SOLE	0	9	COLLEGE AREA                       	21	COLLEGE AREA
Y	ZAYRII ENNIS	ZAYRII ENNIS	6345	EL CAJON BLVD 	1324			SAN DIEGO	CA	92115-5571	N	44	RETAIL	N	11/14/2019	11/30/2020	SOLE	0	9	MID-CITY:EASTERN AREA	21	COLLEGE AREA
N	LACRECIA D RANDELL	ZENTARIA'S YOUNIQUE INNOVATIONS	6161	EL CAJON BLVD 	B			SAN DIEGO	CA	92115-3987	Y	8129	OTHER PERSONAL SERVICES	N	8/11/1997	8/31/2021	SOLE	0	9	MID-CITY:EASTERN AREA	21	COLLEGE AREA
N	QOPI INC	ZODIAK HOOKAH LOUNGE	6455	EL CAJON BLVD 				SAN DIEGO	CA	92115-2646	N	453991	HOOKAH LOUNGE.	N	8/25/2014	8/31/2021	SCORP	4	9	MID-CITY:EASTERN AREA	21	COLLEGE AREA
N	MICHELLE LOPEZ	_STYLEDBYMICHELLE	5935	EL CAJON BLVD 				SAN DIEGO	CA	92115-3827	N	812115	BEAUTY SALONS- BOOTH RENT	N	11/16/2018	11/30/2020	SOLE	0	9	MID-CITY:EASTERN AREA	21	COLLEGE AREA